<?xml version="1.0" encoding="UTF-8"?>
<gpx version="1.1" creator="tkPage GPX editor" xmlns="http://www.topografix.com/GPX/1/1">
  <trk>
    <name>Trimmed track</name>
    <trkseg>
      <trkpt lat="60.177675" lon="24.696757"><ele>15.2</ele></trkpt>
      <trkpt lat="60.177707" lon="24.696717"><ele>15</ele></trkpt>
      <trkpt lat="60.177722" lon="24.696695"><ele>14.8</ele></trkpt>
      <trkpt lat="60.177742" lon="24.696662"><ele>14.8</ele></trkpt>
      <trkpt lat="60.177765" lon="24.696627"><ele>14.6</ele></trkpt>
      <trkpt lat="60.177792" lon="24.696585"><ele>14.6</ele></trkpt>
      <trkpt lat="60.177818" lon="24.696537"><ele>14.6</ele></trkpt>
      <trkpt lat="60.177855" lon="24.696485"><ele>14.8</ele></trkpt>
      <trkpt lat="60.177892" lon="24.696442"><ele>14.8</ele></trkpt>
      <trkpt lat="60.177912" lon="24.696412"><ele>15</ele></trkpt>
      <trkpt lat="60.177932" lon="24.696382"><ele>15</ele></trkpt>
      <trkpt lat="60.177955" lon="24.696342"><ele>15.2</ele></trkpt>
      <trkpt lat="60.177982" lon="24.6963"><ele>15.4</ele></trkpt>
      <trkpt lat="60.178007" lon="24.696262"><ele>15.6</ele></trkpt>
      <trkpt lat="60.178032" lon="24.696232"><ele>15.8</ele></trkpt>
      <trkpt lat="60.178057" lon="24.69621"><ele>16</ele></trkpt>
      <trkpt lat="60.178085" lon="24.696212"><ele>16.4</ele></trkpt>
      <trkpt lat="60.178107" lon="24.696212"><ele>16.6</ele></trkpt>
      <trkpt lat="60.178132" lon="24.696212"><ele>17</ele></trkpt>
      <trkpt lat="60.178157" lon="24.69621"><ele>17.2</ele></trkpt>
      <trkpt lat="60.178185" lon="24.6962"><ele>17.4</ele></trkpt>
      <trkpt lat="60.178207" lon="24.696182"><ele>17.8</ele></trkpt>
      <trkpt lat="60.178232" lon="24.696162"><ele>18</ele></trkpt>
      <trkpt lat="60.178257" lon="24.696147"><ele>18.2</ele></trkpt>
      <trkpt lat="60.178287" lon="24.696137"><ele>18.6</ele></trkpt>
      <trkpt lat="60.178312" lon="24.696132"><ele>18.8</ele></trkpt>
      <trkpt lat="60.178332" lon="24.69614"><ele>19.2</ele></trkpt>
      <trkpt lat="60.178347" lon="24.69617"><ele>19.4</ele></trkpt>
      <trkpt lat="60.178382" lon="24.696222"><ele>19.8</ele></trkpt>
      <trkpt lat="60.178402" lon="24.696255"><ele>20</ele></trkpt>
      <trkpt lat="60.178417" lon="24.696292"><ele>20.4</ele></trkpt>
      <trkpt lat="60.178432" lon="24.696332"><ele>20.6</ele></trkpt>
      <trkpt lat="60.178447" lon="24.696382"><ele>21</ele></trkpt>
      <trkpt lat="60.178462" lon="24.696427"><ele>21.2</ele></trkpt>
      <trkpt lat="60.17848" lon="24.696477"><ele>21.4</ele></trkpt>
      <trkpt lat="60.178502" lon="24.696507"><ele>21.8</ele></trkpt>
      <trkpt lat="60.178522" lon="24.696532"><ele>22.2</ele></trkpt>
      <trkpt lat="60.178542" lon="24.696572"><ele>22.4</ele></trkpt>
      <trkpt lat="60.178562" lon="24.696612"><ele>22.6</ele></trkpt>
      <trkpt lat="60.17859" lon="24.696628"><ele>22.8</ele></trkpt>
      <trkpt lat="60.17862" lon="24.696647"><ele>22.8</ele></trkpt>
      <trkpt lat="60.17864" lon="24.696667"><ele>23</ele></trkpt>
      <trkpt lat="60.178662" lon="24.696687"><ele>23</ele></trkpt>
      <trkpt lat="60.178677" lon="24.696712"><ele>23.2</ele></trkpt>
      <trkpt lat="60.178695" lon="24.696742"><ele>23.6</ele></trkpt>
      <trkpt lat="60.178715" lon="24.696767"><ele>23.8</ele></trkpt>
      <trkpt lat="60.178737" lon="24.696805"><ele>24</ele></trkpt>
      <trkpt lat="60.178757" lon="24.696847"><ele>24</ele></trkpt>
      <trkpt lat="60.178775" lon="24.696882"><ele>24.2</ele></trkpt>
      <trkpt lat="60.17879" lon="24.696927"><ele>24.4</ele></trkpt>
      <trkpt lat="60.178802" lon="24.696967"><ele>24.4</ele></trkpt>
      <trkpt lat="60.17882" lon="24.697012"><ele>24.6</ele></trkpt>
      <trkpt lat="60.178832" lon="24.697055"><ele>24.4</ele></trkpt>
      <trkpt lat="60.17885" lon="24.697112"><ele>24.4</ele></trkpt>
      <trkpt lat="60.178867" lon="24.697162"><ele>24.6</ele></trkpt>
      <trkpt lat="60.17889" lon="24.69721"><ele>24.4</ele></trkpt>
      <trkpt lat="60.178912" lon="24.697252"><ele>24.4</ele></trkpt>
      <trkpt lat="60.178942" lon="24.69728"><ele>24.2</ele></trkpt>
      <trkpt lat="60.17897" lon="24.697297"><ele>24.2</ele></trkpt>
      <trkpt lat="60.178995" lon="24.697325"><ele>24</ele></trkpt>
      <trkpt lat="60.179017" lon="24.697357"><ele>24.2</ele></trkpt>
      <trkpt lat="60.179042" lon="24.69738"><ele>24.2</ele></trkpt>
      <trkpt lat="60.179067" lon="24.697395"><ele>24.2</ele></trkpt>
      <trkpt lat="60.179092" lon="24.697402"><ele>24.4</ele></trkpt>
      <trkpt lat="60.179115" lon="24.697415"><ele>24.4</ele></trkpt>
      <trkpt lat="60.179137" lon="24.697422"><ele>24.6</ele></trkpt>
      <trkpt lat="60.179155" lon="24.69742"><ele>24.8</ele></trkpt>
      <trkpt lat="60.179177" lon="24.697422"><ele>24.8</ele></trkpt>
      <trkpt lat="60.179202" lon="24.697423"><ele>25</ele></trkpt>
      <trkpt lat="60.179222" lon="24.697427"><ele>25.2</ele></trkpt>
      <trkpt lat="60.179253" lon="24.697475"><ele>25.6</ele></trkpt>
      <trkpt lat="60.179272" lon="24.69751"><ele>25.8</ele></trkpt>
      <trkpt lat="60.179287" lon="24.69755"><ele>25.8</ele></trkpt>
      <trkpt lat="60.1793" lon="24.697585"><ele>25.8</ele></trkpt>
      <trkpt lat="60.179317" lon="24.69761"><ele>25.8</ele></trkpt>
      <trkpt lat="60.17933" lon="24.697642"><ele>25.6</ele></trkpt>
      <trkpt lat="60.179337" lon="24.697682"><ele>25.4</ele></trkpt>
      <trkpt lat="60.179347" lon="24.697732"><ele>25.4</ele></trkpt>
      <trkpt lat="60.17936" lon="24.697777"><ele>25.2</ele></trkpt>
      <trkpt lat="60.179377" lon="24.69781"><ele>25</ele></trkpt>
      <trkpt lat="60.1794" lon="24.697832"><ele>24.8</ele></trkpt>
      <trkpt lat="60.179422" lon="24.697862"><ele>24.6</ele></trkpt>
      <trkpt lat="60.179442" lon="24.697887"><ele>24.6</ele></trkpt>
      <trkpt lat="60.179462" lon="24.697937"><ele>24.6</ele></trkpt>
      <trkpt lat="60.179475" lon="24.697992"><ele>24.8</ele></trkpt>
      <trkpt lat="60.17949" lon="24.698035"><ele>24.6</ele></trkpt>
      <trkpt lat="60.179507" lon="24.698065"><ele>24.2</ele></trkpt>
      <trkpt lat="60.179532" lon="24.698102"><ele>23.8</ele></trkpt>
      <trkpt lat="60.17955" lon="24.698132"><ele>23.6</ele></trkpt>
      <trkpt lat="60.179572" lon="24.69814"><ele>23.6</ele></trkpt>
      <trkpt lat="60.179607" lon="24.698112"><ele>23.4</ele></trkpt>
      <trkpt lat="60.179652" lon="24.698122"><ele>23.8</ele></trkpt>
      <trkpt lat="60.17968" lon="24.69813"><ele>24</ele></trkpt>
      <trkpt lat="60.179707" lon="24.698137"><ele>24</ele></trkpt>
      <trkpt lat="60.179735" lon="24.698137"><ele>24</ele></trkpt>
      <trkpt lat="60.179767" lon="24.698165"><ele>24.4</ele></trkpt>
      <trkpt lat="60.179782" lon="24.698183"><ele>24.4</ele></trkpt>
      <trkpt lat="60.179802" lon="24.69821"><ele>24.6</ele></trkpt>
      <trkpt lat="60.17983" lon="24.698225"><ele>24.6</ele></trkpt>
      <trkpt lat="60.179855" lon="24.698237"><ele>24.4</ele></trkpt>
      <trkpt lat="60.179872" lon="24.698265"><ele>24.4</ele></trkpt>
      <trkpt lat="60.179892" lon="24.698295"><ele>24.4</ele></trkpt>
      <trkpt lat="60.179917" lon="24.698327"><ele>24.4</ele></trkpt>
      <trkpt lat="60.179937" lon="24.69837"><ele>24.2</ele></trkpt>
      <trkpt lat="60.17996" lon="24.698392"><ele>24.2</ele></trkpt>
      <trkpt lat="60.179982" lon="24.6984"><ele>24</ele></trkpt>
      <trkpt lat="60.180005" lon="24.698402"><ele>23.8</ele></trkpt>
      <trkpt lat="60.180027" lon="24.698405"><ele>23.6</ele></trkpt>
      <trkpt lat="60.18007" lon="24.698387"><ele>23.4</ele></trkpt>
      <trkpt lat="60.180095" lon="24.698402"><ele>23.4</ele></trkpt>
      <trkpt lat="60.180107" lon="24.698452"><ele>23.4</ele></trkpt>
      <trkpt lat="60.180107" lon="24.698517"><ele>23.4</ele></trkpt>
      <trkpt lat="60.180115" lon="24.698587"><ele>23.4</ele></trkpt>
      <trkpt lat="60.18014" lon="24.698635"><ele>23.2</ele></trkpt>
      <trkpt lat="60.180167" lon="24.69867"><ele>22.8</ele></trkpt>
      <trkpt lat="60.180205" lon="24.698682"><ele>22.4</ele></trkpt>
      <trkpt lat="60.180242" lon="24.698685"><ele>22</ele></trkpt>
      <trkpt lat="60.180282" lon="24.698692"><ele>22</ele></trkpt>
      <trkpt lat="60.180312" lon="24.698717"><ele>21.8</ele></trkpt>
      <trkpt lat="60.180337" lon="24.69876"><ele>21.6</ele></trkpt>
      <trkpt lat="60.180365" lon="24.698797"><ele>21.6</ele></trkpt>
      <trkpt lat="60.180397" lon="24.698832"><ele>21.6</ele></trkpt>
      <trkpt lat="60.18043" lon="24.698872"><ele>21.6</ele></trkpt>
      <trkpt lat="60.180462" lon="24.698882"><ele>21.6</ele></trkpt>
      <trkpt lat="60.18049" lon="24.698852"><ele>21.6</ele></trkpt>
      <trkpt lat="60.180512" lon="24.698802"><ele>21.4</ele></trkpt>
      <trkpt lat="60.180532" lon="24.698752"><ele>21.6</ele></trkpt>
      <trkpt lat="60.180552" lon="24.698702"><ele>21.6</ele></trkpt>
      <trkpt lat="60.180565" lon="24.698665"><ele>22</ele></trkpt>
      <trkpt lat="60.180577" lon="24.698615"><ele>22.2</ele></trkpt>
      <trkpt lat="60.180585" lon="24.698562"><ele>22.4</ele></trkpt>
      <trkpt lat="60.18059" lon="24.698512"><ele>22.8</ele></trkpt>
      <trkpt lat="60.180597" lon="24.698462"><ele>23</ele></trkpt>
      <trkpt lat="60.180607" lon="24.698412"><ele>23.2</ele></trkpt>
      <trkpt lat="60.180618" lon="24.698357"><ele>23.6</ele></trkpt>
      <trkpt lat="60.180622" lon="24.698307"><ele>24</ele></trkpt>
      <trkpt lat="60.180635" lon="24.698255"><ele>24.2</ele></trkpt>
      <trkpt lat="60.180647" lon="24.698212"><ele>24.4</ele></trkpt>
      <trkpt lat="60.180657" lon="24.698172"><ele>24.8</ele></trkpt>
      <trkpt lat="60.18067" lon="24.698127"><ele>25</ele></trkpt>
      <trkpt lat="60.180672" lon="24.698075"><ele>25.2</ele></trkpt>
      <trkpt lat="60.18067" lon="24.698022"><ele>25.4</ele></trkpt>
      <trkpt lat="60.180665" lon="24.69797"><ele>25.6</ele></trkpt>
      <trkpt lat="60.180657" lon="24.697917"><ele>25.8</ele></trkpt>
      <trkpt lat="60.180647" lon="24.697867"><ele>26</ele></trkpt>
      <trkpt lat="60.180637" lon="24.697817"><ele>26.2</ele></trkpt>
      <trkpt lat="60.18063" lon="24.697767"><ele>26.4</ele></trkpt>
      <trkpt lat="60.180625" lon="24.697722"><ele>26.6</ele></trkpt>
      <trkpt lat="60.180602" lon="24.697667"><ele>27</ele></trkpt>
      <trkpt lat="60.180587" lon="24.697607"><ele>27.2</ele></trkpt>
      <trkpt lat="60.18058" lon="24.697562"><ele>27.2</ele></trkpt>
      <trkpt lat="60.180567" lon="24.697512"><ele>27.4</ele></trkpt>
      <trkpt lat="60.180555" lon="24.69745"><ele>27.4</ele></trkpt>
      <trkpt lat="60.18054" lon="24.697388"><ele>27.6</ele></trkpt>
      <trkpt lat="60.18052" lon="24.697337"><ele>27.6</ele></trkpt>
      <trkpt lat="60.180497" lon="24.697272"><ele>27.8</ele></trkpt>
      <trkpt lat="60.180495" lon="24.697192"><ele>28</ele></trkpt>
      <trkpt lat="60.18051" lon="24.697117"><ele>28</ele></trkpt>
      <trkpt lat="60.180532" lon="24.697047"><ele>28</ele></trkpt>
      <trkpt lat="60.180542" lon="24.696962"><ele>28</ele></trkpt>
      <trkpt lat="60.180527" lon="24.6968"><ele>27.6</ele></trkpt>
      <trkpt lat="60.18051" lon="24.69665"><ele>27.2</ele></trkpt>
      <trkpt lat="60.18051" lon="24.69658"><ele>27.2</ele></trkpt>
      <trkpt lat="60.180502" lon="24.696527"><ele>27.4</ele></trkpt>
      <trkpt lat="60.180497" lon="24.696482"><ele>27.4</ele></trkpt>
      <trkpt lat="60.180495" lon="24.696432"><ele>27.6</ele></trkpt>
      <trkpt lat="60.1805" lon="24.696382"><ele>27.8</ele></trkpt>
      <trkpt lat="60.180507" lon="24.69634"><ele>28</ele></trkpt>
      <trkpt lat="60.180507" lon="24.696295"><ele>28.2</ele></trkpt>
      <trkpt lat="60.180505" lon="24.696255"><ele>28.6</ele></trkpt>
      <trkpt lat="60.180492" lon="24.6962"><ele>29</ele></trkpt>
      <trkpt lat="60.180482" lon="24.696145"><ele>29.6</ele></trkpt>
      <trkpt lat="60.180472" lon="24.69609"><ele>30</ele></trkpt>
      <trkpt lat="60.180463" lon="24.696052"><ele>30.2</ele></trkpt>
      <trkpt lat="60.180455" lon="24.696015"><ele>30.6</ele></trkpt>
      <trkpt lat="60.180447" lon="24.695967"><ele>30.8</ele></trkpt>
      <trkpt lat="60.180452" lon="24.695932"><ele>31</ele></trkpt>
      <trkpt lat="60.180467" lon="24.69587"><ele>31.4</ele></trkpt>
      <trkpt lat="60.18047" lon="24.69583"><ele>31.6</ele></trkpt>
      <trkpt lat="60.180477" lon="24.695785"><ele>31.6</ele></trkpt>
      <trkpt lat="60.180482" lon="24.695722"><ele>31.8</ele></trkpt>
      <trkpt lat="60.180492" lon="24.695682"><ele>31.6</ele></trkpt>
      <trkpt lat="60.180507" lon="24.695642"><ele>31.6</ele></trkpt>
      <trkpt lat="60.180527" lon="24.695595"><ele>31.4</ele></trkpt>
      <trkpt lat="60.180532" lon="24.695545"><ele>30.8</ele></trkpt>
      <trkpt lat="60.18053" lon="24.695492"><ele>30.4</ele></trkpt>
      <trkpt lat="60.18053" lon="24.69544"><ele>29.8</ele></trkpt>
      <trkpt lat="60.180542" lon="24.695385"><ele>29.4</ele></trkpt>
      <trkpt lat="60.180567" lon="24.695367"><ele>29</ele></trkpt>
      <trkpt lat="60.180585" lon="24.69536"><ele>28.4</ele></trkpt>
      <trkpt lat="60.180605" lon="24.695352"><ele>28.2</ele></trkpt>
      <trkpt lat="60.180632" lon="24.695367"><ele>27.6</ele></trkpt>
      <trkpt lat="60.180655" lon="24.695387"><ele>27.2</ele></trkpt>
      <trkpt lat="60.180675" lon="24.695422"><ele>26.8</ele></trkpt>
      <trkpt lat="60.180688" lon="24.695457"><ele>26.4</ele></trkpt>
      <trkpt lat="60.18071" lon="24.695492"><ele>26.2</ele></trkpt>
      <trkpt lat="60.180735" lon="24.695542"><ele>25.8</ele></trkpt>
      <trkpt lat="60.180762" lon="24.695602"><ele>25.6</ele></trkpt>
      <trkpt lat="60.180787" lon="24.695657"><ele>25.4</ele></trkpt>
      <trkpt lat="60.180802" lon="24.695712"><ele>25.4</ele></trkpt>
      <trkpt lat="60.180815" lon="24.69581"><ele>24.4</ele></trkpt>
      <trkpt lat="60.180827" lon="24.695842"><ele>24</ele></trkpt>
      <trkpt lat="60.180842" lon="24.695887"><ele>23.8</ele></trkpt>
      <trkpt lat="60.180855" lon="24.69594"><ele>23.6</ele></trkpt>
      <trkpt lat="60.180865" lon="24.696002"><ele>23.4</ele></trkpt>
      <trkpt lat="60.180872" lon="24.696057"><ele>23.2</ele></trkpt>
      <trkpt lat="60.180872" lon="24.696125"><ele>23.2</ele></trkpt>
      <trkpt lat="60.180872" lon="24.696187"><ele>23.2</ele></trkpt>
      <trkpt lat="60.18087" lon="24.696262"><ele>23.4</ele></trkpt>
      <trkpt lat="60.180865" lon="24.696337"><ele>23.6</ele></trkpt>
      <trkpt lat="60.180857" lon="24.696412"><ele>23.8</ele></trkpt>
      <trkpt lat="60.18083" lon="24.696525"><ele>24.4</ele></trkpt>
      <trkpt lat="60.180812" lon="24.696572"><ele>24.6</ele></trkpt>
      <trkpt lat="60.180797" lon="24.696617"><ele>24.8</ele></trkpt>
      <trkpt lat="60.18078" lon="24.696667"><ele>25</ele></trkpt>
      <trkpt lat="60.18074" lon="24.696747"><ele>25.2</ele></trkpt>
      <trkpt lat="60.18072" lon="24.696782"><ele>25.2</ele></trkpt>
      <trkpt lat="60.180702" lon="24.696822"><ele>25.4</ele></trkpt>
      <trkpt lat="60.180667" lon="24.696887"><ele>25.6</ele></trkpt>
      <trkpt lat="60.180647" lon="24.696932"><ele>25.6</ele></trkpt>
      <trkpt lat="60.180625" lon="24.696952"><ele>25.6</ele></trkpt>
      <trkpt lat="60.180612" lon="24.696992"><ele>25.6</ele></trkpt>
      <trkpt lat="60.180617" lon="24.69704"><ele>25.6</ele></trkpt>
      <trkpt lat="60.180632" lon="24.69709"><ele>25.8</ele></trkpt>
      <trkpt lat="60.180645" lon="24.697142"><ele>25.8</ele></trkpt>
      <trkpt lat="60.180655" lon="24.697192"><ele>26</ele></trkpt>
      <trkpt lat="60.180665" lon="24.69724"><ele>26</ele></trkpt>
      <trkpt lat="60.180672" lon="24.697285"><ele>26.2</ele></trkpt>
      <trkpt lat="60.180672" lon="24.697327"><ele>26.4</ele></trkpt>
      <trkpt lat="60.18068" lon="24.697365"><ele>26.6</ele></trkpt>
      <trkpt lat="60.180697" lon="24.697402"><ele>26.8</ele></trkpt>
      <trkpt lat="60.18072" lon="24.697437"><ele>27</ele></trkpt>
      <trkpt lat="60.180747" lon="24.697467"><ele>27.2</ele></trkpt>
      <trkpt lat="60.18077" lon="24.697502"><ele>27.2</ele></trkpt>
      <trkpt lat="60.180782" lon="24.697532"><ele>27.2</ele></trkpt>
      <trkpt lat="60.180795" lon="24.69757"><ele>27.2</ele></trkpt>
      <trkpt lat="60.1808" lon="24.697607"><ele>27.2</ele></trkpt>
      <trkpt lat="60.180817" lon="24.69767"><ele>27.4</ele></trkpt>
      <trkpt lat="60.18083" lon="24.697715"><ele>27.4</ele></trkpt>
      <trkpt lat="60.180847" lon="24.697772"><ele>27.6</ele></trkpt>
      <trkpt lat="60.180865" lon="24.697832"><ele>27.6</ele></trkpt>
      <trkpt lat="60.180882" lon="24.69788"><ele>27.6</ele></trkpt>
      <trkpt lat="60.180902" lon="24.697912"><ele>27.6</ele></trkpt>
      <trkpt lat="60.180905" lon="24.697952"><ele>27.4</ele></trkpt>
      <trkpt lat="60.180912" lon="24.698012"><ele>27</ele></trkpt>
      <trkpt lat="60.180912" lon="24.697952"><ele>26.4</ele></trkpt>
      <trkpt lat="60.180937" lon="24.697885"><ele>26.2</ele></trkpt>
      <trkpt lat="60.180967" lon="24.69785"><ele>26.2</ele></trkpt>
      <trkpt lat="60.181002" lon="24.697827"><ele>26.2</ele></trkpt>
      <trkpt lat="60.18103" lon="24.697802"><ele>26.2</ele></trkpt>
      <trkpt lat="60.18106" lon="24.697768"><ele>26.2</ele></trkpt>
      <trkpt lat="60.18112" lon="24.6977"><ele>26.2</ele></trkpt>
      <trkpt lat="60.18115" lon="24.697662"><ele>26</ele></trkpt>
      <trkpt lat="60.181212" lon="24.697605"><ele>25.8</ele></trkpt>
      <trkpt lat="60.181237" lon="24.69757"><ele>25.6</ele></trkpt>
      <trkpt lat="60.181257" lon="24.697525"><ele>25.2</ele></trkpt>
      <trkpt lat="60.181277" lon="24.697475"><ele>25</ele></trkpt>
      <trkpt lat="60.181307" lon="24.697442"><ele>24.8</ele></trkpt>
      <trkpt lat="60.181345" lon="24.69742"><ele>24.8</ele></trkpt>
      <trkpt lat="60.181382" lon="24.697397"><ele>24.6</ele></trkpt>
      <trkpt lat="60.181412" lon="24.697352"><ele>24.4</ele></trkpt>
      <trkpt lat="60.181445" lon="24.697297"><ele>24.4</ele></trkpt>
      <trkpt lat="60.18148" lon="24.697262"><ele>24.2</ele></trkpt>
      <trkpt lat="60.181502" lon="24.697222"><ele>24.2</ele></trkpt>
      <trkpt lat="60.181527" lon="24.697175"><ele>24</ele></trkpt>
      <trkpt lat="60.181552" lon="24.697127"><ele>23.8</ele></trkpt>
      <trkpt lat="60.181582" lon="24.69709"><ele>23.6</ele></trkpt>
      <trkpt lat="60.181612" lon="24.69706"><ele>23.6</ele></trkpt>
      <trkpt lat="60.181647" lon="24.697027"><ele>23.6</ele></trkpt>
      <trkpt lat="60.181682" lon="24.696982"><ele>23.4</ele></trkpt>
      <trkpt lat="60.181757" lon="24.696892"><ele>23.2</ele></trkpt>
      <trkpt lat="60.181792" lon="24.69683"><ele>23</ele></trkpt>
      <trkpt lat="60.181867" lon="24.696722"><ele>22.8</ele></trkpt>
      <trkpt lat="60.181902" lon="24.696675"><ele>22.8</ele></trkpt>
      <trkpt lat="60.181932" lon="24.696627"><ele>22.6</ele></trkpt>
      <trkpt lat="60.181967" lon="24.696587"><ele>22.4</ele></trkpt>
      <trkpt lat="60.182005" lon="24.696542"><ele>22.2</ele></trkpt>
      <trkpt lat="60.182037" lon="24.696485"><ele>22</ele></trkpt>
      <trkpt lat="60.18207" lon="24.696412"><ele>22</ele></trkpt>
      <trkpt lat="60.182102" lon="24.696345"><ele>22</ele></trkpt>
      <trkpt lat="60.182137" lon="24.696287"><ele>22</ele></trkpt>
      <trkpt lat="60.182187" lon="24.696182"><ele>21.8</ele></trkpt>
      <trkpt lat="60.182208" lon="24.696137"><ele>21.6</ele></trkpt>
      <trkpt lat="60.182232" lon="24.696095"><ele>21.6</ele></trkpt>
      <trkpt lat="60.182257" lon="24.696082"><ele>21.4</ele></trkpt>
      <trkpt lat="60.18228" lon="24.696077"><ele>21.4</ele></trkpt>
      <trkpt lat="60.182302" lon="24.696077"><ele>21.4</ele></trkpt>
      <trkpt lat="60.182342" lon="24.6961"><ele>21.6</ele></trkpt>
      <trkpt lat="60.182375" lon="24.696172"><ele>21.6</ele></trkpt>
      <trkpt lat="60.182407" lon="24.69624"><ele>22</ele></trkpt>
      <trkpt lat="60.182433" lon="24.696257"><ele>22</ele></trkpt>
      <trkpt lat="60.182452" lon="24.696297"><ele>22.2</ele></trkpt>
      <trkpt lat="60.182457" lon="24.696347"><ele>22.2</ele></trkpt>
      <trkpt lat="60.182452" lon="24.6964"><ele>22.2</ele></trkpt>
      <trkpt lat="60.18244" lon="24.696475"><ele>22.4</ele></trkpt>
      <trkpt lat="60.182437" lon="24.696562"><ele>22.6</ele></trkpt>
      <trkpt lat="60.182442" lon="24.696605"><ele>22.6</ele></trkpt>
      <trkpt lat="60.182447" lon="24.696647"><ele>22.6</ele></trkpt>
      <trkpt lat="60.182462" lon="24.696682"><ele>22.6</ele></trkpt>
      <trkpt lat="60.18248" lon="24.69672"><ele>22.6</ele></trkpt>
      <trkpt lat="60.182495" lon="24.696767"><ele>22.8</ele></trkpt>
      <trkpt lat="60.182507" lon="24.696825"><ele>22.8</ele></trkpt>
      <trkpt lat="60.182545" lon="24.69693"><ele>22.8</ele></trkpt>
      <trkpt lat="60.182567" lon="24.69696"><ele>22.8</ele></trkpt>
      <trkpt lat="60.182592" lon="24.696982"><ele>23</ele></trkpt>
      <trkpt lat="60.182652" lon="24.697035"><ele>23</ele></trkpt>
      <trkpt lat="60.18267" lon="24.697075"><ele>23</ele></trkpt>
      <trkpt lat="60.18269" lon="24.697112"><ele>23.2</ele></trkpt>
      <trkpt lat="60.182722" lon="24.69715"><ele>23</ele></trkpt>
      <trkpt lat="60.182737" lon="24.697142"><ele>23</ele></trkpt>
      <trkpt lat="60.182775" lon="24.697007"><ele>23</ele></trkpt>
      <trkpt lat="60.182777" lon="24.696937"><ele>22.8</ele></trkpt>
      <trkpt lat="60.182797" lon="24.696872"><ele>22.6</ele></trkpt>
      <trkpt lat="60.182817" lon="24.696817"><ele>22.2</ele></trkpt>
      <trkpt lat="60.182837" lon="24.696767"><ele>21.6</ele></trkpt>
      <trkpt lat="60.182862" lon="24.696715"><ele>21</ele></trkpt>
      <trkpt lat="60.182882" lon="24.696672"><ele>20.4</ele></trkpt>
      <trkpt lat="60.182907" lon="24.696627"><ele>20</ele></trkpt>
      <trkpt lat="60.182952" lon="24.696527"><ele>19.6</ele></trkpt>
      <trkpt lat="60.182982" lon="24.696432"><ele>19.8</ele></trkpt>
      <trkpt lat="60.182985" lon="24.69638"><ele>19.8</ele></trkpt>
      <trkpt lat="60.182972" lon="24.696327"><ele>19.8</ele></trkpt>
      <trkpt lat="60.182945" lon="24.696212"><ele>20</ele></trkpt>
      <trkpt lat="60.182942" lon="24.696092"><ele>20.2</ele></trkpt>
      <trkpt lat="60.182957" lon="24.69604"><ele>20.2</ele></trkpt>
      <trkpt lat="60.182972" lon="24.695987"><ele>20.2</ele></trkpt>
      <trkpt lat="60.182982" lon="24.695887"><ele>19.8</ele></trkpt>
      <trkpt lat="60.183012" lon="24.695765"><ele>19.6</ele></trkpt>
      <trkpt lat="60.183022" lon="24.695702"><ele>19.6</ele></trkpt>
      <trkpt lat="60.183035" lon="24.69564"><ele>19.6</ele></trkpt>
      <trkpt lat="60.183045" lon="24.695495"><ele>19.6</ele></trkpt>
      <trkpt lat="60.183052" lon="24.69533"><ele>19.6</ele></trkpt>
      <trkpt lat="60.183062" lon="24.695182"><ele>19.2</ele></trkpt>
      <trkpt lat="60.183032" lon="24.695038"><ele>19.2</ele></trkpt>
      <trkpt lat="60.183002" lon="24.694967"><ele>19.4</ele></trkpt>
      <trkpt lat="60.182967" lon="24.694895"><ele>19.2</ele></trkpt>
      <trkpt lat="60.182917" lon="24.694717"><ele>19.2</ele></trkpt>
      <trkpt lat="60.182898" lon="24.694547"><ele>19.2</ele></trkpt>
      <trkpt lat="60.182898" lon="24.694485"><ele>19.4</ele></trkpt>
      <trkpt lat="60.182897" lon="24.694432"><ele>19.6</ele></trkpt>
      <trkpt lat="60.182892" lon="24.694372"><ele>19.8</ele></trkpt>
      <trkpt lat="60.182885" lon="24.694312"><ele>20.2</ele></trkpt>
      <trkpt lat="60.182877" lon="24.694247"><ele>20.4</ele></trkpt>
      <trkpt lat="60.182865" lon="24.69419"><ele>20.8</ele></trkpt>
      <trkpt lat="60.18286" lon="24.694067"><ele>21.4</ele></trkpt>
      <trkpt lat="60.182877" lon="24.694022"><ele>21.6</ele></trkpt>
      <trkpt lat="60.182897" lon="24.69399"><ele>21.8</ele></trkpt>
      <trkpt lat="60.182925" lon="24.693967"><ele>21.8</ele></trkpt>
      <trkpt lat="60.182952" lon="24.693947"><ele>22.2</ele></trkpt>
      <trkpt lat="60.18298" lon="24.693925"><ele>22.4</ele></trkpt>
      <trkpt lat="60.183007" lon="24.693902"><ele>22.6</ele></trkpt>
      <trkpt lat="60.183035" lon="24.693877"><ele>22.8</ele></trkpt>
      <trkpt lat="60.183092" lon="24.693827"><ele>23.2</ele></trkpt>
      <trkpt lat="60.183157" lon="24.6938"><ele>23.4</ele></trkpt>
      <trkpt lat="60.183217" lon="24.693772"><ele>23.6</ele></trkpt>
      <trkpt lat="60.183285" lon="24.69366"><ele>23.8</ele></trkpt>
      <trkpt lat="60.183317" lon="24.693605"><ele>24</ele></trkpt>
      <trkpt lat="60.183348" lon="24.693542"><ele>24</ele></trkpt>
      <trkpt lat="60.183418" lon="24.693412"><ele>23.8</ele></trkpt>
      <trkpt lat="60.183462" lon="24.693367"><ele>23.8</ele></trkpt>
      <trkpt lat="60.183507" lon="24.693352"><ele>23.8</ele></trkpt>
      <trkpt lat="60.183552" lon="24.693337"><ele>23.8</ele></trkpt>
      <trkpt lat="60.183597" lon="24.693312"><ele>23.8</ele></trkpt>
      <trkpt lat="60.18369" lon="24.693232"><ele>23.8</ele></trkpt>
      <trkpt lat="60.183777" lon="24.693162"><ele>24</ele></trkpt>
      <trkpt lat="60.183822" lon="24.693115"><ele>24</ele></trkpt>
      <trkpt lat="60.183862" lon="24.693077"><ele>24</ele></trkpt>
      <trkpt lat="60.183912" lon="24.693042"><ele>24</ele></trkpt>
      <trkpt lat="60.183967" lon="24.693005"><ele>24.2</ele></trkpt>
      <trkpt lat="60.184015" lon="24.692947"><ele>24.2</ele></trkpt>
      <trkpt lat="60.184052" lon="24.692872"><ele>24.2</ele></trkpt>
      <trkpt lat="60.184097" lon="24.692805"><ele>24.4</ele></trkpt>
      <trkpt lat="60.184137" lon="24.69275"><ele>24.4</ele></trkpt>
      <trkpt lat="60.184182" lon="24.692687"><ele>24.2</ele></trkpt>
      <trkpt lat="60.184222" lon="24.692622"><ele>24.2</ele></trkpt>
      <trkpt lat="60.184267" lon="24.692555"><ele>24.2</ele></trkpt>
      <trkpt lat="60.18434" lon="24.692412"><ele>24.2</ele></trkpt>
      <trkpt lat="60.18436" lon="24.692335"><ele>24.2</ele></trkpt>
      <trkpt lat="60.184385" lon="24.692267"><ele>24.4</ele></trkpt>
      <trkpt lat="60.184435" lon="24.692132"><ele>24.6</ele></trkpt>
      <trkpt lat="60.184452" lon="24.692015"><ele>25</ele></trkpt>
      <trkpt lat="60.184452" lon="24.691955"><ele>25</ele></trkpt>
      <trkpt lat="60.184447" lon="24.691892"><ele>25.2</ele></trkpt>
      <trkpt lat="60.184445" lon="24.69183"><ele>25.2</ele></trkpt>
      <trkpt lat="60.184445" lon="24.69176"><ele>25.4</ele></trkpt>
      <trkpt lat="60.184442" lon="24.69169"><ele>25.6</ele></trkpt>
      <trkpt lat="60.18444" lon="24.69162"><ele>25.8</ele></trkpt>
      <trkpt lat="60.184437" lon="24.691552"><ele>26</ele></trkpt>
      <trkpt lat="60.184432" lon="24.691485"><ele>26</ele></trkpt>
      <trkpt lat="60.184425" lon="24.691417"><ele>26.2</ele></trkpt>
      <trkpt lat="60.184417" lon="24.69135"><ele>26.2</ele></trkpt>
      <trkpt lat="60.184407" lon="24.691282"><ele>26.2</ele></trkpt>
      <trkpt lat="60.184397" lon="24.691217"><ele>26.4</ele></trkpt>
      <trkpt lat="60.184385" lon="24.691155"><ele>26.4</ele></trkpt>
      <trkpt lat="60.184377" lon="24.691087"><ele>26.6</ele></trkpt>
      <trkpt lat="60.184367" lon="24.691022"><ele>26.6</ele></trkpt>
      <trkpt lat="60.184357" lon="24.690962"><ele>26.8</ele></trkpt>
      <trkpt lat="60.184352" lon="24.6909"><ele>27</ele></trkpt>
      <trkpt lat="60.184337" lon="24.690837"><ele>27.2</ele></trkpt>
      <trkpt lat="60.18432" lon="24.690777"><ele>27.2</ele></trkpt>
      <trkpt lat="60.184312" lon="24.690715"><ele>27.2</ele></trkpt>
      <trkpt lat="60.184317" lon="24.690647"><ele>27.2</ele></trkpt>
      <trkpt lat="60.184332" lon="24.690597"><ele>27.4</ele></trkpt>
      <trkpt lat="60.184352" lon="24.69055"><ele>27.4</ele></trkpt>
      <trkpt lat="60.184372" lon="24.690512"><ele>27.4</ele></trkpt>
      <trkpt lat="60.184412" lon="24.690467"><ele>27.4</ele></trkpt>
      <trkpt lat="60.184422" lon="24.69045"><ele>27.6</ele></trkpt>
      <trkpt lat="60.184447" lon="24.6904"><ele>28.2</ele></trkpt>
      <trkpt lat="60.18446" lon="24.690365"><ele>28.4</ele></trkpt>
      <trkpt lat="60.184477" lon="24.690322"><ele>28.6</ele></trkpt>
      <trkpt lat="60.184487" lon="24.690282"><ele>28.8</ele></trkpt>
      <trkpt lat="60.184488" lon="24.690232"><ele>29</ele></trkpt>
      <trkpt lat="60.184497" lon="24.690182"><ele>29.2</ele></trkpt>
      <trkpt lat="60.184505" lon="24.69013"><ele>29.4</ele></trkpt>
      <trkpt lat="60.184512" lon="24.690072"><ele>29.4</ele></trkpt>
      <trkpt lat="60.184522" lon="24.690012"><ele>29.8</ele></trkpt>
      <trkpt lat="60.184537" lon="24.689955"><ele>30</ele></trkpt>
      <trkpt lat="60.184558" lon="24.68992"><ele>30.2</ele></trkpt>
      <trkpt lat="60.184587" lon="24.689897"><ele>30.4</ele></trkpt>
      <trkpt lat="60.184617" lon="24.68988"><ele>30.4</ele></trkpt>
      <trkpt lat="60.184645" lon="24.68986"><ele>30.6</ele></trkpt>
      <trkpt lat="60.184672" lon="24.689845"><ele>30.8</ele></trkpt>
      <trkpt lat="60.184697" lon="24.689832"><ele>31</ele></trkpt>
      <trkpt lat="60.184725" lon="24.689817"><ele>31</ele></trkpt>
      <trkpt lat="60.18475" lon="24.689802"><ele>31</ele></trkpt>
      <trkpt lat="60.184777" lon="24.689782"><ele>31.2</ele></trkpt>
      <trkpt lat="60.184802" lon="24.689767"><ele>31.4</ele></trkpt>
      <trkpt lat="60.184827" lon="24.68975"><ele>31.4</ele></trkpt>
      <trkpt lat="60.184852" lon="24.689732"><ele>31.6</ele></trkpt>
      <trkpt lat="60.184877" lon="24.689717"><ele>31.8</ele></trkpt>
      <trkpt lat="60.184922" lon="24.68968"><ele>32</ele></trkpt>
      <trkpt lat="60.184947" lon="24.689667"><ele>32.2</ele></trkpt>
      <trkpt lat="60.184972" lon="24.689652"><ele>32.6</ele></trkpt>
      <trkpt lat="60.184995" lon="24.689637"><ele>32.8</ele></trkpt>
      <trkpt lat="60.185015" lon="24.689622"><ele>33</ele></trkpt>
      <trkpt lat="60.185032" lon="24.689607"><ele>33.2</ele></trkpt>
      <trkpt lat="60.185047" lon="24.689582"><ele>33.4</ele></trkpt>
      <trkpt lat="60.185067" lon="24.689565"><ele>33.6</ele></trkpt>
      <trkpt lat="60.185085" lon="24.689542"><ele>33.8</ele></trkpt>
      <trkpt lat="60.1851" lon="24.689522"><ele>34</ele></trkpt>
      <trkpt lat="60.185122" lon="24.689477"><ele>34.4</ele></trkpt>
      <trkpt lat="60.185155" lon="24.689442"><ele>34.8</ele></trkpt>
      <trkpt lat="60.18518" lon="24.689397"><ele>35.2</ele></trkpt>
      <trkpt lat="60.185182" lon="24.68936"><ele>35.4</ele></trkpt>
      <trkpt lat="60.185182" lon="24.689317"><ele>35.6</ele></trkpt>
      <trkpt lat="60.18516" lon="24.689287"><ele>36</ele></trkpt>
      <trkpt lat="60.185142" lon="24.689277"><ele>36.2</ele></trkpt>
      <trkpt lat="60.185117" lon="24.689245"><ele>36.4</ele></trkpt>
      <trkpt lat="60.1851" lon="24.689197"><ele>36.4</ele></trkpt>
      <trkpt lat="60.185085" lon="24.689142"><ele>36.6</ele></trkpt>
      <trkpt lat="60.18508" lon="24.6891"><ele>37</ele></trkpt>
      <trkpt lat="60.185075" lon="24.689037"><ele>38</ele></trkpt>
      <trkpt lat="60.18507" lon="24.689015"><ele>38.4</ele></trkpt>
      <trkpt lat="60.185052" lon="24.688985"><ele>38.4</ele></trkpt>
      <trkpt lat="60.185032" lon="24.688973"><ele>38.6</ele></trkpt>
      <trkpt lat="60.185012" lon="24.688967"><ele>38.6</ele></trkpt>
      <trkpt lat="60.184977" lon="24.688962"><ele>38.4</ele></trkpt>
      <trkpt lat="60.184938" lon="24.688932"><ele>38.6</ele></trkpt>
      <trkpt lat="60.18491" lon="24.688912"><ele>38.6</ele></trkpt>
      <trkpt lat="60.184877" lon="24.68891"><ele>38.6</ele></trkpt>
      <trkpt lat="60.184855" lon="24.688902"><ele>38.4</ele></trkpt>
      <trkpt lat="60.184822" lon="24.688875"><ele>38</ele></trkpt>
      <trkpt lat="60.184782" lon="24.688852"><ele>37.6</ele></trkpt>
      <trkpt lat="60.184762" lon="24.688812"><ele>37.4</ele></trkpt>
      <trkpt lat="60.184752" lon="24.688765"><ele>37.2</ele></trkpt>
      <trkpt lat="60.184742" lon="24.688732"><ele>37</ele></trkpt>
      <trkpt lat="60.184727" lon="24.688697"><ele>36.6</ele></trkpt>
      <trkpt lat="60.184712" lon="24.688675"><ele>36.2</ele></trkpt>
      <trkpt lat="60.184677" lon="24.688657"><ele>35.2</ele></trkpt>
      <trkpt lat="60.184642" lon="24.688667"><ele>34.6</ele></trkpt>
      <trkpt lat="60.184627" lon="24.688675"><ele>34.2</ele></trkpt>
      <trkpt lat="60.18459" lon="24.688682"><ele>33.6</ele></trkpt>
      <trkpt lat="60.18457" lon="24.688675"><ele>33.4</ele></trkpt>
      <trkpt lat="60.18455" lon="24.688662"><ele>33.2</ele></trkpt>
      <trkpt lat="60.184532" lon="24.688637"><ele>33.2</ele></trkpt>
      <trkpt lat="60.184515" lon="24.688612"><ele>33.2</ele></trkpt>
      <trkpt lat="60.184495" lon="24.6886"><ele>33.2</ele></trkpt>
      <trkpt lat="60.184472" lon="24.688587"><ele>33.4</ele></trkpt>
      <trkpt lat="60.184452" lon="24.688562"><ele>33.4</ele></trkpt>
      <trkpt lat="60.184437" lon="24.68854"><ele>33.2</ele></trkpt>
      <trkpt lat="60.184417" lon="24.688505"><ele>33</ele></trkpt>
      <trkpt lat="60.184407" lon="24.68846"><ele>32.8</ele></trkpt>
      <trkpt lat="60.18439" lon="24.68841"><ele>32.4</ele></trkpt>
      <trkpt lat="60.184362" lon="24.68838"><ele>32.2</ele></trkpt>
      <trkpt lat="60.184345" lon="24.688362"><ele>32</ele></trkpt>
      <trkpt lat="60.184327" lon="24.688355"><ele>32</ele></trkpt>
      <trkpt lat="60.184302" lon="24.68835"><ele>32</ele></trkpt>
      <trkpt lat="60.184282" lon="24.688347"><ele>32</ele></trkpt>
      <trkpt lat="60.18425" lon="24.688362"><ele>32</ele></trkpt>
      <trkpt lat="60.184232" lon="24.688367"><ele>32</ele></trkpt>
      <trkpt lat="60.184205" lon="24.688365"><ele>32.2</ele></trkpt>
      <trkpt lat="60.184177" lon="24.688337"><ele>32.2</ele></trkpt>
      <trkpt lat="60.184147" lon="24.688312"><ele>32.6</ele></trkpt>
      <trkpt lat="60.184122" lon="24.688297"><ele>32.8</ele></trkpt>
      <trkpt lat="60.184107" lon="24.688265"><ele>33</ele></trkpt>
      <trkpt lat="60.184102" lon="24.688212"><ele>33</ele></trkpt>
      <trkpt lat="60.1841" lon="24.688152"><ele>33</ele></trkpt>
      <trkpt lat="60.184095" lon="24.6881"><ele>33.2</ele></trkpt>
      <trkpt lat="60.184087" lon="24.688055"><ele>33.4</ele></trkpt>
      <trkpt lat="60.184077" lon="24.688017"><ele>33.4</ele></trkpt>
      <trkpt lat="60.184062" lon="24.687992"><ele>33.4</ele></trkpt>
      <trkpt lat="60.184045" lon="24.68795"><ele>32.8</ele></trkpt>
      <trkpt lat="60.184032" lon="24.687917"><ele>32.6</ele></trkpt>
      <trkpt lat="60.184022" lon="24.687882"><ele>32.4</ele></trkpt>
      <trkpt lat="60.184012" lon="24.687832"><ele>32.2</ele></trkpt>
      <trkpt lat="60.18401" lon="24.687792"><ele>32</ele></trkpt>
      <trkpt lat="60.184002" lon="24.687752"><ele>31.6</ele></trkpt>
      <trkpt lat="60.18399" lon="24.687715"><ele>31.4</ele></trkpt>
      <trkpt lat="60.183972" lon="24.68768"><ele>31</ele></trkpt>
      <trkpt lat="60.183945" lon="24.687647"><ele>30.8</ele></trkpt>
      <trkpt lat="60.183917" lon="24.687617"><ele>30.6</ele></trkpt>
      <trkpt lat="60.18389" lon="24.687582"><ele>30.4</ele></trkpt>
      <trkpt lat="60.183877" lon="24.68753"><ele>30.2</ele></trkpt>
      <trkpt lat="60.18388" lon="24.687472"><ele>30</ele></trkpt>
      <trkpt lat="60.183887" lon="24.687412"><ele>30</ele></trkpt>
      <trkpt lat="60.1839" lon="24.687347"><ele>30</ele></trkpt>
      <trkpt lat="60.183907" lon="24.687295"><ele>30</ele></trkpt>
      <trkpt lat="60.183915" lon="24.687252"><ele>30</ele></trkpt>
      <trkpt lat="60.183927" lon="24.68721"><ele>30</ele></trkpt>
      <trkpt lat="60.183937" lon="24.687157"><ele>30</ele></trkpt>
      <trkpt lat="60.18395" lon="24.687107"><ele>30</ele></trkpt>
      <trkpt lat="60.18396" lon="24.687052"><ele>30</ele></trkpt>
      <trkpt lat="60.183967" lon="24.68699"><ele>30</ele></trkpt>
      <trkpt lat="60.183987" lon="24.68694"><ele>29.6</ele></trkpt>
      <trkpt lat="60.184012" lon="24.686917"><ele>29.2</ele></trkpt>
      <trkpt lat="60.184047" lon="24.6869"><ele>29</ele></trkpt>
      <trkpt lat="60.184077" lon="24.686882"><ele>28.6</ele></trkpt>
      <trkpt lat="60.184107" lon="24.686885"><ele>28.4</ele></trkpt>
      <trkpt lat="60.184135" lon="24.686885"><ele>28.4</ele></trkpt>
      <trkpt lat="60.18416" lon="24.686885"><ele>28.2</ele></trkpt>
      <trkpt lat="60.184178" lon="24.68687"><ele>28</ele></trkpt>
      <trkpt lat="60.184202" lon="24.686812"><ele>28</ele></trkpt>
      <trkpt lat="60.184242" lon="24.68676"><ele>28.2</ele></trkpt>
      <trkpt lat="60.184272" lon="24.686697"><ele>28.2</ele></trkpt>
      <trkpt lat="60.184282" lon="24.686645"><ele>28.4</ele></trkpt>
      <trkpt lat="60.18429" lon="24.68652"><ele>28.4</ele></trkpt>
      <trkpt lat="60.184297" lon="24.686452"><ele>28.4</ele></trkpt>
      <trkpt lat="60.184315" lon="24.686407"><ele>28.2</ele></trkpt>
      <trkpt lat="60.184337" lon="24.686342"><ele>28</ele></trkpt>
      <trkpt lat="60.18435" lon="24.68631"><ele>27.8</ele></trkpt>
      <trkpt lat="60.184365" lon="24.68628"><ele>27.8</ele></trkpt>
      <trkpt lat="60.18438" lon="24.686247"><ele>27.8</ele></trkpt>
      <trkpt lat="60.184397" lon="24.686202"><ele>27.8</ele></trkpt>
      <trkpt lat="60.184422" lon="24.686147"><ele>28</ele></trkpt>
      <trkpt lat="60.184445" lon="24.686097"><ele>28.2</ele></trkpt>
      <trkpt lat="60.184465" lon="24.686042"><ele>28.2</ele></trkpt>
      <trkpt lat="60.184487" lon="24.685982"><ele>28.2</ele></trkpt>
      <trkpt lat="60.184515" lon="24.685917"><ele>28.4</ele></trkpt>
      <trkpt lat="60.184567" lon="24.685835"><ele>28.6</ele></trkpt>
      <trkpt lat="60.184587" lon="24.685807"><ele>28.6</ele></trkpt>
      <trkpt lat="60.184612" lon="24.685767"><ele>28.2</ele></trkpt>
      <trkpt lat="60.184647" lon="24.68565"><ele>27.6</ele></trkpt>
      <trkpt lat="60.184667" lon="24.685603"><ele>27.2</ele></trkpt>
      <trkpt lat="60.184687" lon="24.685568"><ele>26.2</ele></trkpt>
      <trkpt lat="60.184707" lon="24.685527"><ele>26</ele></trkpt>
      <trkpt lat="60.184722" lon="24.6855"><ele>25.6</ele></trkpt>
      <trkpt lat="60.184742" lon="24.685442"><ele>25</ele></trkpt>
      <trkpt lat="60.184772" lon="24.685372"><ele>24.4</ele></trkpt>
      <trkpt lat="60.184792" lon="24.685337"><ele>24.4</ele></trkpt>
      <trkpt lat="60.18481" lon="24.685297"><ele>24.4</ele></trkpt>
      <trkpt lat="60.184822" lon="24.685197"><ele>24.2</ele></trkpt>
      <trkpt lat="60.184847" lon="24.68513"><ele>24.4</ele></trkpt>
      <trkpt lat="60.18486" lon="24.685077"><ele>24.4</ele></trkpt>
      <trkpt lat="60.184882" lon="24.685032"><ele>24.6</ele></trkpt>
      <trkpt lat="60.184892" lon="24.68498"><ele>24.8</ele></trkpt>
      <trkpt lat="60.18491" lon="24.684917"><ele>24.8</ele></trkpt>
      <trkpt lat="60.184925" lon="24.684892"><ele>24.8</ele></trkpt>
      <trkpt lat="60.184938" lon="24.684872"><ele>25</ele></trkpt>
      <trkpt lat="60.184955" lon="24.68485"><ele>25</ele></trkpt>
      <trkpt lat="60.184985" lon="24.684825"><ele>25.4</ele></trkpt>
      <trkpt lat="60.185005" lon="24.684797"><ele>25.6</ele></trkpt>
      <trkpt lat="60.185022" lon="24.684762"><ele>25.8</ele></trkpt>
      <trkpt lat="60.185047" lon="24.684755"><ele>26.6</ele></trkpt>
      <trkpt lat="60.185067" lon="24.68476"><ele>27.2</ele></trkpt>
      <trkpt lat="60.185087" lon="24.684757"><ele>27.4</ele></trkpt>
      <trkpt lat="60.185115" lon="24.68477"><ele>27.4</ele></trkpt>
      <trkpt lat="60.185147" lon="24.684767"><ele>27.4</ele></trkpt>
      <trkpt lat="60.18517" lon="24.684757"><ele>27.4</ele></trkpt>
      <trkpt lat="60.185197" lon="24.684735"><ele>27.6</ele></trkpt>
      <trkpt lat="60.185217" lon="24.68472"><ele>27.8</ele></trkpt>
      <trkpt lat="60.18524" lon="24.684702"><ele>27.8</ele></trkpt>
      <trkpt lat="60.185257" lon="24.684682"><ele>28</ele></trkpt>
      <trkpt lat="60.185275" lon="24.684667"><ele>28</ele></trkpt>
      <trkpt lat="60.1853" lon="24.684597"><ele>27.8</ele></trkpt>
      <trkpt lat="60.185307" lon="24.68456"><ele>27.8</ele></trkpt>
      <trkpt lat="60.185322" lon="24.6845"><ele>27.8</ele></trkpt>
      <trkpt lat="60.185347" lon="24.684435"><ele>27.8</ele></trkpt>
      <trkpt lat="60.185372" lon="24.68437"><ele>28</ele></trkpt>
      <trkpt lat="60.185397" lon="24.684307"><ele>28</ele></trkpt>
      <trkpt lat="60.185425" lon="24.684257"><ele>27.6</ele></trkpt>
      <trkpt lat="60.185452" lon="24.684222"><ele>27.2</ele></trkpt>
      <trkpt lat="60.185472" lon="24.6842"><ele>27</ele></trkpt>
      <trkpt lat="60.185492" lon="24.684182"><ele>26.8</ele></trkpt>
      <trkpt lat="60.18552" lon="24.684177"><ele>26.8</ele></trkpt>
      <trkpt lat="60.185557" lon="24.684152"><ele>26.8</ele></trkpt>
      <trkpt lat="60.185577" lon="24.684137"><ele>27</ele></trkpt>
      <trkpt lat="60.185602" lon="24.6841"><ele>27.2</ele></trkpt>
      <trkpt lat="60.185632" lon="24.684082"><ele>27.2</ele></trkpt>
      <trkpt lat="60.185657" lon="24.684077"><ele>27.2</ele></trkpt>
      <trkpt lat="60.185685" lon="24.684077"><ele>27.4</ele></trkpt>
      <trkpt lat="60.185712" lon="24.68409"><ele>27.4</ele></trkpt>
      <trkpt lat="60.185742" lon="24.684107"><ele>27.4</ele></trkpt>
      <trkpt lat="60.185767" lon="24.68411"><ele>27.6</ele></trkpt>
      <trkpt lat="60.185802" lon="24.684107"><ele>27.6</ele></trkpt>
      <trkpt lat="60.185832" lon="24.684097"><ele>27.6</ele></trkpt>
      <trkpt lat="60.185862" lon="24.684092"><ele>27.4</ele></trkpt>
      <trkpt lat="60.185892" lon="24.684082"><ele>27</ele></trkpt>
      <trkpt lat="60.185927" lon="24.684067"><ele>26.8</ele></trkpt>
      <trkpt lat="60.185957" lon="24.684065"><ele>26.6</ele></trkpt>
      <trkpt lat="60.185985" lon="24.684067"><ele>26.4</ele></trkpt>
      <trkpt lat="60.186007" lon="24.68406"><ele>26.4</ele></trkpt>
      <trkpt lat="60.186027" lon="24.684052"><ele>26.4</ele></trkpt>
      <trkpt lat="60.186045" lon="24.684042"><ele>26.4</ele></trkpt>
      <trkpt lat="60.186072" lon="24.684027"><ele>26.2</ele></trkpt>
      <trkpt lat="60.186097" lon="24.683997"><ele>26.2</ele></trkpt>
      <trkpt lat="60.186115" lon="24.683967"><ele>26.2</ele></trkpt>
      <trkpt lat="60.186117" lon="24.683915"><ele>26</ele></trkpt>
      <trkpt lat="60.18612" lon="24.683847"><ele>25.8</ele></trkpt>
      <trkpt lat="60.186125" lon="24.683777"><ele>25.4</ele></trkpt>
      <trkpt lat="60.186137" lon="24.683707"><ele>25.2</ele></trkpt>
      <trkpt lat="60.186147" lon="24.683642"><ele>24.8</ele></trkpt>
      <trkpt lat="60.186157" lon="24.683572"><ele>24.4</ele></trkpt>
      <trkpt lat="60.18616" lon="24.68351"><ele>24.2</ele></trkpt>
      <trkpt lat="60.186152" lon="24.68346"><ele>23.8</ele></trkpt>
      <trkpt lat="60.186147" lon="24.683422"><ele>23.4</ele></trkpt>
      <trkpt lat="60.186147" lon="24.683382"><ele>23.2</ele></trkpt>
      <trkpt lat="60.18616" lon="24.683342"><ele>22.8</ele></trkpt>
      <trkpt lat="60.186182" lon="24.683305"><ele>22.4</ele></trkpt>
      <trkpt lat="60.186187" lon="24.683257"><ele>22</ele></trkpt>
      <trkpt lat="60.186222" lon="24.683177"><ele>21.4</ele></trkpt>
      <trkpt lat="60.186247" lon="24.683157"><ele>21.2</ele></trkpt>
      <trkpt lat="60.186272" lon="24.683117"><ele>21</ele></trkpt>
      <trkpt lat="60.186282" lon="24.683077"><ele>21.2</ele></trkpt>
      <trkpt lat="60.186292" lon="24.683027"><ele>21.2</ele></trkpt>
      <trkpt lat="60.186312" lon="24.68298"><ele>21.2</ele></trkpt>
      <trkpt lat="60.186332" lon="24.682925"><ele>21.2</ele></trkpt>
      <trkpt lat="60.186352" lon="24.682862"><ele>21.2</ele></trkpt>
      <trkpt lat="60.186372" lon="24.68279"><ele>21.2</ele></trkpt>
      <trkpt lat="60.186392" lon="24.682712"><ele>21.2</ele></trkpt>
      <trkpt lat="60.1864" lon="24.682617"><ele>21.2</ele></trkpt>
      <trkpt lat="60.186395" lon="24.68252"><ele>21.2</ele></trkpt>
      <trkpt lat="60.186392" lon="24.682422"><ele>21</ele></trkpt>
      <trkpt lat="60.186412" lon="24.682342"><ele>20.8</ele></trkpt>
      <trkpt lat="60.186442" lon="24.682262"><ele>20.4</ele></trkpt>
      <trkpt lat="60.186482" lon="24.68219"><ele>20.2</ele></trkpt>
      <trkpt lat="60.18652" lon="24.682127"><ele>19.8</ele></trkpt>
      <trkpt lat="60.18657" lon="24.682082"><ele>19.6</ele></trkpt>
      <trkpt lat="60.186617" lon="24.68206"><ele>19.4</ele></trkpt>
      <trkpt lat="60.186655" lon="24.68203"><ele>19.2</ele></trkpt>
      <trkpt lat="60.186687" lon="24.681995"><ele>19.2</ele></trkpt>
      <trkpt lat="60.186717" lon="24.681972"><ele>19.2</ele></trkpt>
      <trkpt lat="60.186735" lon="24.68196"><ele>19.2</ele></trkpt>
      <trkpt lat="60.186762" lon="24.681942"><ele>19.4</ele></trkpt>
      <trkpt lat="60.186782" lon="24.681927"><ele>19.6</ele></trkpt>
      <trkpt lat="60.186802" lon="24.681932"><ele>20</ele></trkpt>
      <trkpt lat="60.186827" lon="24.681957"><ele>20.2</ele></trkpt>
      <trkpt lat="60.186845" lon="24.681997"><ele>20.2</ele></trkpt>
      <trkpt lat="60.186872" lon="24.68203"><ele>20.4</ele></trkpt>
      <trkpt lat="60.186897" lon="24.682062"><ele>20.4</ele></trkpt>
      <trkpt lat="60.18692" lon="24.682077"><ele>20.6</ele></trkpt>
      <trkpt lat="60.186955" lon="24.68207"><ele>20.6</ele></trkpt>
      <trkpt lat="60.186977" lon="24.682067"><ele>20.6</ele></trkpt>
      <trkpt lat="60.187" lon="24.682102"><ele>20.6</ele></trkpt>
      <trkpt lat="60.187017" lon="24.682155"><ele>20.4</ele></trkpt>
      <trkpt lat="60.187037" lon="24.682207"><ele>20.4</ele></trkpt>
      <trkpt lat="60.18706" lon="24.68225"><ele>20.4</ele></trkpt>
      <trkpt lat="60.187087" lon="24.682292"><ele>20.6</ele></trkpt>
      <trkpt lat="60.187117" lon="24.68235"><ele>20.8</ele></trkpt>
      <trkpt lat="60.187147" lon="24.682422"><ele>20.8</ele></trkpt>
      <trkpt lat="60.18717" lon="24.682517"><ele>20.8</ele></trkpt>
      <trkpt lat="60.187182" lon="24.68261"><ele>20.8</ele></trkpt>
      <trkpt lat="60.187192" lon="24.682705"><ele>20.6</ele></trkpt>
      <trkpt lat="60.187207" lon="24.6828"><ele>20.4</ele></trkpt>
      <trkpt lat="60.18722" lon="24.682892"><ele>20.4</ele></trkpt>
      <trkpt lat="60.18724" lon="24.68298"><ele>20.4</ele></trkpt>
      <trkpt lat="60.187257" lon="24.683057"><ele>20.4</ele></trkpt>
      <trkpt lat="60.187265" lon="24.683117"><ele>20.4</ele></trkpt>
      <trkpt lat="60.18727" lon="24.683177"><ele>20.6</ele></trkpt>
      <trkpt lat="60.187275" lon="24.68324"><ele>20.8</ele></trkpt>
      <trkpt lat="60.187302" lon="24.683305"><ele>21.2</ele></trkpt>
      <trkpt lat="60.187327" lon="24.683327"><ele>21.4</ele></trkpt>
      <trkpt lat="60.187347" lon="24.683342"><ele>21.4</ele></trkpt>
      <trkpt lat="60.187367" lon="24.683362"><ele>21.6</ele></trkpt>
      <trkpt lat="60.187402" lon="24.683432"><ele>21.8</ele></trkpt>
      <trkpt lat="60.187457" lon="24.683497"><ele>22</ele></trkpt>
      <trkpt lat="60.187475" lon="24.68359"><ele>22.2</ele></trkpt>
      <trkpt lat="60.187485" lon="24.683632"><ele>22.2</ele></trkpt>
      <trkpt lat="60.187502" lon="24.683675"><ele>22.2</ele></trkpt>
      <trkpt lat="60.187542" lon="24.683767"><ele>22.4</ele></trkpt>
      <trkpt lat="60.187565" lon="24.683858"><ele>22.4</ele></trkpt>
      <trkpt lat="60.187597" lon="24.68395"><ele>22.6</ele></trkpt>
      <trkpt lat="60.187615" lon="24.684"><ele>22.6</ele></trkpt>
      <trkpt lat="60.18764" lon="24.684048"><ele>22.8</ele></trkpt>
      <trkpt lat="60.187662" lon="24.684117"><ele>22.8</ele></trkpt>
      <trkpt lat="60.18769" lon="24.684262"><ele>22.8</ele></trkpt>
      <trkpt lat="60.187705" lon="24.68434"><ele>22.8</ele></trkpt>
      <trkpt lat="60.187725" lon="24.684417"><ele>22.8</ele></trkpt>
      <trkpt lat="60.187742" lon="24.684507"><ele>22.6</ele></trkpt>
      <trkpt lat="60.187757" lon="24.6846"><ele>22.4</ele></trkpt>
      <trkpt lat="60.187807" lon="24.684812"><ele>22</ele></trkpt>
      <trkpt lat="60.187865" lon="24.685065"><ele>21.4</ele></trkpt>
      <trkpt lat="60.1879" lon="24.685177"><ele>21</ele></trkpt>
      <trkpt lat="60.187947" lon="24.685277"><ele>20.4</ele></trkpt>
      <trkpt lat="60.188047" lon="24.68549"><ele>19.4</ele></trkpt>
      <trkpt lat="60.188117" lon="24.685697"><ele>18.6</ele></trkpt>
      <trkpt lat="60.188155" lon="24.685862"><ele>18</ele></trkpt>
      <trkpt lat="60.188172" lon="24.685982"><ele>18</ele></trkpt>
      <trkpt lat="60.18818" lon="24.68603"><ele>18.2</ele></trkpt>
      <trkpt lat="60.188187" lon="24.686087"><ele>18.4</ele></trkpt>
      <trkpt lat="60.18819" lon="24.686137"><ele>18.8</ele></trkpt>
      <trkpt lat="60.188195" lon="24.686187"><ele>19.2</ele></trkpt>
      <trkpt lat="60.188212" lon="24.68627"><ele>20</ele></trkpt>
      <trkpt lat="60.188225" lon="24.68635"><ele>20.8</ele></trkpt>
      <trkpt lat="60.188222" lon="24.686392"><ele>21.2</ele></trkpt>
      <trkpt lat="60.188212" lon="24.686427"><ele>21.8</ele></trkpt>
      <trkpt lat="60.188185" lon="24.686495"><ele>22.4</ele></trkpt>
      <trkpt lat="60.188167" lon="24.686585"><ele>23.2</ele></trkpt>
      <trkpt lat="60.18816" lon="24.686692"><ele>23.6</ele></trkpt>
      <trkpt lat="60.188145" lon="24.686792"><ele>23.8</ele></trkpt>
      <trkpt lat="60.188122" lon="24.686887"><ele>24.4</ele></trkpt>
      <trkpt lat="60.188112" lon="24.687"><ele>24.8</ele></trkpt>
      <trkpt lat="60.188107" lon="24.687115"><ele>25.2</ele></trkpt>
      <trkpt lat="60.18811" lon="24.687197"><ele>25</ele></trkpt>
      <trkpt lat="60.188125" lon="24.687297"><ele>25</ele></trkpt>
      <trkpt lat="60.188127" lon="24.687405"><ele>25</ele></trkpt>
      <trkpt lat="60.188127" lon="24.687462"><ele>25</ele></trkpt>
      <trkpt lat="60.188125" lon="24.687517"><ele>25</ele></trkpt>
      <trkpt lat="60.188122" lon="24.687577"><ele>25</ele></trkpt>
      <trkpt lat="60.188115" lon="24.687697"><ele>25.2</ele></trkpt>
      <trkpt lat="60.188107" lon="24.687755"><ele>25.4</ele></trkpt>
      <trkpt lat="60.18809" lon="24.687797"><ele>25.4</ele></trkpt>
      <trkpt lat="60.188067" lon="24.687892"><ele>25.6</ele></trkpt>
      <trkpt lat="60.18806" lon="24.687942"><ele>25.8</ele></trkpt>
      <trkpt lat="60.188047" lon="24.688052"><ele>26.2</ele></trkpt>
      <trkpt lat="60.188048" lon="24.68815"><ele>26.4</ele></trkpt>
      <trkpt lat="60.18804" lon="24.688195"><ele>26.6</ele></trkpt>
      <trkpt lat="60.188027" lon="24.688247"><ele>26.8</ele></trkpt>
      <trkpt lat="60.188017" lon="24.688305"><ele>27</ele></trkpt>
      <trkpt lat="60.188007" lon="24.688367"><ele>27.2</ele></trkpt>
      <trkpt lat="60.187992" lon="24.68842"><ele>27.2</ele></trkpt>
      <trkpt lat="60.187963" lon="24.688542"><ele>27.4</ele></trkpt>
      <trkpt lat="60.187952" lon="24.6886"><ele>27.4</ele></trkpt>
      <trkpt lat="60.187932" lon="24.68869"><ele>27.4</ele></trkpt>
      <trkpt lat="60.187907" lon="24.688755"><ele>27.6</ele></trkpt>
      <trkpt lat="60.187865" lon="24.688827"><ele>27.8</ele></trkpt>
      <trkpt lat="60.187832" lon="24.68889"><ele>28.2</ele></trkpt>
      <trkpt lat="60.187802" lon="24.688927"><ele>28.6</ele></trkpt>
      <trkpt lat="60.187777" lon="24.688972"><ele>29</ele></trkpt>
      <trkpt lat="60.187745" lon="24.689022"><ele>29.4</ele></trkpt>
      <trkpt lat="60.18772" lon="24.68908"><ele>30</ele></trkpt>
      <trkpt lat="60.18772" lon="24.689107"><ele>30</ele></trkpt>
      <trkpt lat="60.187717" lon="24.689142"><ele>30.2</ele></trkpt>
      <trkpt lat="60.187722" lon="24.689227"><ele>30.4</ele></trkpt>
      <trkpt lat="60.187725" lon="24.689297"><ele>30.8</ele></trkpt>
      <trkpt lat="60.187727" lon="24.689377"><ele>31</ele></trkpt>
      <trkpt lat="60.187725" lon="24.689422"><ele>31.2</ele></trkpt>
      <trkpt lat="60.187707" lon="24.689477"><ele>31.4</ele></trkpt>
      <trkpt lat="60.187702" lon="24.689542"><ele>31.4</ele></trkpt>
      <trkpt lat="60.1877" lon="24.689615"><ele>31.4</ele></trkpt>
      <trkpt lat="60.187692" lon="24.689665"><ele>31.2</ele></trkpt>
      <trkpt lat="60.187692" lon="24.689692"><ele>31.2</ele></trkpt>
      <trkpt lat="60.18769" lon="24.689733"><ele>31.4</ele></trkpt>
      <trkpt lat="60.187677" lon="24.68979"><ele>31.2</ele></trkpt>
      <trkpt lat="60.187662" lon="24.689837"><ele>31.4</ele></trkpt>
      <trkpt lat="60.18766" lon="24.689857"><ele>31.4</ele></trkpt>
      <trkpt lat="60.18765" lon="24.689912"><ele>31.6</ele></trkpt>
      <trkpt lat="60.187642" lon="24.689957"><ele>31.8</ele></trkpt>
      <trkpt lat="60.187632" lon="24.690002"><ele>31.8</ele></trkpt>
      <trkpt lat="60.187622" lon="24.690042"><ele>32</ele></trkpt>
      <trkpt lat="60.18761" lon="24.690082"><ele>32</ele></trkpt>
      <trkpt lat="60.187592" lon="24.690113"><ele>32.2</ele></trkpt>
      <trkpt lat="60.187572" lon="24.690122"><ele>32.2</ele></trkpt>
      <trkpt lat="60.18755" lon="24.690105"><ele>32.4</ele></trkpt>
      <trkpt lat="60.187532" lon="24.690077"><ele>32.8</ele></trkpt>
      <trkpt lat="60.187502" lon="24.690042"><ele>33</ele></trkpt>
      <trkpt lat="60.187472" lon="24.690012"><ele>33.4</ele></trkpt>
      <trkpt lat="60.187437" lon="24.68999"><ele>33.6</ele></trkpt>
      <trkpt lat="60.187402" lon="24.68997"><ele>33.8</ele></trkpt>
      <trkpt lat="60.187377" lon="24.689922"><ele>33.8</ele></trkpt>
      <trkpt lat="60.187362" lon="24.689867"><ele>33.8</ele></trkpt>
      <trkpt lat="60.187352" lon="24.689802"><ele>33.8</ele></trkpt>
      <trkpt lat="60.187342" lon="24.68974"><ele>33.8</ele></trkpt>
      <trkpt lat="60.187327" lon="24.689677"><ele>33.6</ele></trkpt>
      <trkpt lat="60.187277" lon="24.689587"><ele>33.6</ele></trkpt>
      <trkpt lat="60.187252" lon="24.689542"><ele>33.4</ele></trkpt>
      <trkpt lat="60.187237" lon="24.689502"><ele>33.2</ele></trkpt>
      <trkpt lat="60.187222" lon="24.689462"><ele>33</ele></trkpt>
      <trkpt lat="60.187217" lon="24.689415"><ele>32.8</ele></trkpt>
      <trkpt lat="60.187212" lon="24.68937"><ele>32.8</ele></trkpt>
      <trkpt lat="60.187207" lon="24.689327"><ele>32.8</ele></trkpt>
      <trkpt lat="60.187195" lon="24.689282"><ele>32.8</ele></trkpt>
      <trkpt lat="60.187187" lon="24.689247"><ele>32.6</ele></trkpt>
      <trkpt lat="60.187172" lon="24.68921"><ele>32.6</ele></trkpt>
      <trkpt lat="60.187157" lon="24.689162"><ele>32.6</ele></trkpt>
      <trkpt lat="60.187147" lon="24.689117"><ele>32.4</ele></trkpt>
      <trkpt lat="60.187137" lon="24.68907"><ele>32.4</ele></trkpt>
      <trkpt lat="60.187125" lon="24.68902"><ele>32.4</ele></trkpt>
      <trkpt lat="60.187105" lon="24.688967"><ele>32.4</ele></trkpt>
      <trkpt lat="60.18708" lon="24.688907"><ele>32.6</ele></trkpt>
      <trkpt lat="60.187052" lon="24.688855"><ele>32.6</ele></trkpt>
      <trkpt lat="60.187025" lon="24.688817"><ele>32.6</ele></trkpt>
      <trkpt lat="60.186997" lon="24.688787"><ele>32.6</ele></trkpt>
      <trkpt lat="60.186972" lon="24.688752"><ele>32.6</ele></trkpt>
      <trkpt lat="60.186952" lon="24.688712"><ele>32.4</ele></trkpt>
      <trkpt lat="60.186905" lon="24.688662"><ele>32.6</ele></trkpt>
      <trkpt lat="60.186885" lon="24.68864"><ele>32.6</ele></trkpt>
      <trkpt lat="60.186867" lon="24.688625"><ele>32.6</ele></trkpt>
      <trkpt lat="60.186842" lon="24.68861"><ele>32.8</ele></trkpt>
      <trkpt lat="60.186815" lon="24.688585"><ele>32.8</ele></trkpt>
      <trkpt lat="60.186782" lon="24.688562"><ele>33</ele></trkpt>
      <trkpt lat="60.186752" lon="24.688542"><ele>33</ele></trkpt>
      <trkpt lat="60.186702" lon="24.688517"><ele>33.2</ele></trkpt>
      <trkpt lat="60.186672" lon="24.688512"><ele>33.2</ele></trkpt>
      <trkpt lat="60.186647" lon="24.688512"><ele>33</ele></trkpt>
      <trkpt lat="60.186595" lon="24.688535"><ele>33.2</ele></trkpt>
      <trkpt lat="60.186577" lon="24.688532"><ele>33.2</ele></trkpt>
      <trkpt lat="60.186557" lon="24.688522"><ele>33.2</ele></trkpt>
      <trkpt lat="60.186537" lon="24.688512"><ele>33.2</ele></trkpt>
      <trkpt lat="60.186512" lon="24.688505"><ele>33.2</ele></trkpt>
      <trkpt lat="60.186492" lon="24.688492"><ele>33.2</ele></trkpt>
      <trkpt lat="60.186472" lon="24.688487"><ele>33.4</ele></trkpt>
      <trkpt lat="60.186452" lon="24.6885"><ele>33.4</ele></trkpt>
      <trkpt lat="60.186422" lon="24.68852"><ele>33.2</ele></trkpt>
      <trkpt lat="60.186397" lon="24.688512"><ele>33.2</ele></trkpt>
      <trkpt lat="60.186367" lon="24.688512"><ele>33.2</ele></trkpt>
      <trkpt lat="60.18634" lon="24.6885"><ele>33</ele></trkpt>
      <trkpt lat="60.186277" lon="24.688482"><ele>33.2</ele></trkpt>
      <trkpt lat="60.186252" lon="24.68846"><ele>33.2</ele></trkpt>
      <trkpt lat="60.186235" lon="24.688442"><ele>33.2</ele></trkpt>
      <trkpt lat="60.186215" lon="24.68844"><ele>33.2</ele></trkpt>
      <trkpt lat="60.186192" lon="24.68844"><ele>33.2</ele></trkpt>
      <trkpt lat="60.186172" lon="24.688452"><ele>33.4</ele></trkpt>
      <trkpt lat="60.186147" lon="24.68846"><ele>33.2</ele></trkpt>
      <trkpt lat="60.18613" lon="24.688475"><ele>33.2</ele></trkpt>
      <trkpt lat="60.186112" lon="24.688497"><ele>33.2</ele></trkpt>
      <trkpt lat="60.186095" lon="24.688512"><ele>33.4</ele></trkpt>
      <trkpt lat="60.186077" lon="24.688522"><ele>33.4</ele></trkpt>
      <trkpt lat="60.186045" lon="24.688522"><ele>33.4</ele></trkpt>
      <trkpt lat="60.186005" lon="24.68855"><ele>33.4</ele></trkpt>
      <trkpt lat="60.185982" lon="24.688567"><ele>33.6</ele></trkpt>
      <trkpt lat="60.185952" lon="24.688582"><ele>33.6</ele></trkpt>
      <trkpt lat="60.185922" lon="24.688595"><ele>33.6</ele></trkpt>
      <trkpt lat="60.185892" lon="24.688607"><ele>33.8</ele></trkpt>
      <trkpt lat="60.185822" lon="24.688627"><ele>34</ele></trkpt>
      <trkpt lat="60.185732" lon="24.688667"><ele>34</ele></trkpt>
      <trkpt lat="60.18569" lon="24.68869"><ele>34</ele></trkpt>
      <trkpt lat="60.185647" lon="24.688712"><ele>33.8</ele></trkpt>
      <trkpt lat="60.185577" lon="24.688765"><ele>33.4</ele></trkpt>
      <trkpt lat="60.185543" lon="24.688782"><ele>33.2</ele></trkpt>
      <trkpt lat="60.185517" lon="24.688807"><ele>33</ele></trkpt>
      <trkpt lat="60.185487" lon="24.688842"><ele>32.6</ele></trkpt>
      <trkpt lat="60.185467" lon="24.688867"><ele>32.6</ele></trkpt>
      <trkpt lat="60.18545" lon="24.688892"><ele>32.6</ele></trkpt>
      <trkpt lat="60.185427" lon="24.68891"><ele>32.6</ele></trkpt>
      <trkpt lat="60.185402" lon="24.688932"><ele>32.8</ele></trkpt>
      <trkpt lat="60.185372" lon="24.68896"><ele>32.8</ele></trkpt>
      <trkpt lat="60.185355" lon="24.689005"><ele>32.8</ele></trkpt>
      <trkpt lat="60.185322" lon="24.689087"><ele>33</ele></trkpt>
      <trkpt lat="60.185307" lon="24.689127"><ele>33</ele></trkpt>
      <trkpt lat="60.185297" lon="24.689162"><ele>33</ele></trkpt>
      <trkpt lat="60.185275" lon="24.68923"><ele>33.4</ele></trkpt>
      <trkpt lat="60.185265" lon="24.689285"><ele>34</ele></trkpt>
      <trkpt lat="60.185275" lon="24.689353"><ele>34.4</ele></trkpt>
      <trkpt lat="60.185295" lon="24.689435"><ele>34.8</ele></trkpt>
      <trkpt lat="60.185297" lon="24.68948"><ele>35</ele></trkpt>
      <trkpt lat="60.185302" lon="24.68952"><ele>35.2</ele></trkpt>
      <trkpt lat="60.185307" lon="24.689562"><ele>35.4</ele></trkpt>
      <trkpt lat="60.185315" lon="24.6896"><ele>35.6</ele></trkpt>
      <trkpt lat="60.185318" lon="24.68964"><ele>35.8</ele></trkpt>
      <trkpt lat="60.185318" lon="24.689677"><ele>36</ele></trkpt>
      <trkpt lat="60.185307" lon="24.68977"><ele>36.4</ele></trkpt>
      <trkpt lat="60.185297" lon="24.689822"><ele>36.6</ele></trkpt>
      <trkpt lat="60.185292" lon="24.68986"><ele>36.8</ele></trkpt>
      <trkpt lat="60.18528" lon="24.689922"><ele>37</ele></trkpt>
      <trkpt lat="60.185287" lon="24.690012"><ele>37</ele></trkpt>
      <trkpt lat="60.18529" lon="24.69006"><ele>37.2</ele></trkpt>
      <trkpt lat="60.185282" lon="24.690107"><ele>37.4</ele></trkpt>
      <trkpt lat="60.185267" lon="24.690182"><ele>37.4</ele></trkpt>
      <trkpt lat="60.185262" lon="24.690252"><ele>37.6</ele></trkpt>
      <trkpt lat="60.185255" lon="24.69033"><ele>37.4</ele></trkpt>
      <trkpt lat="60.185242" lon="24.690395"><ele>36.8</ele></trkpt>
      <trkpt lat="60.185235" lon="24.69043"><ele>36.6</ele></trkpt>
      <trkpt lat="60.185232" lon="24.690472"><ele>36.6</ele></trkpt>
      <trkpt lat="60.185222" lon="24.690515"><ele>36.4</ele></trkpt>
      <trkpt lat="60.185217" lon="24.690552"><ele>36.2</ele></trkpt>
      <trkpt lat="60.185207" lon="24.69062"><ele>36</ele></trkpt>
      <trkpt lat="60.185202" lon="24.69069"><ele>35.8</ele></trkpt>
      <trkpt lat="60.185197" lon="24.690787"><ele>35.6</ele></trkpt>
      <trkpt lat="60.18519" lon="24.690822"><ele>35.6</ele></trkpt>
      <trkpt lat="60.18517" lon="24.690835"><ele>35.4</ele></trkpt>
      <trkpt lat="60.185132" lon="24.690847"><ele>35.4</ele></trkpt>
      <trkpt lat="60.185127" lon="24.690865"><ele>35.4</ele></trkpt>
      <trkpt lat="60.185117" lon="24.690897"><ele>35.4</ele></trkpt>
      <trkpt lat="60.185102" lon="24.690942"><ele>35.2</ele></trkpt>
      <trkpt lat="60.185097" lon="24.690977"><ele>35.4</ele></trkpt>
      <trkpt lat="60.18508" lon="24.691072"><ele>35.2</ele></trkpt>
      <trkpt lat="60.185075" lon="24.691142"><ele>35</ele></trkpt>
      <trkpt lat="60.185077" lon="24.69123"><ele>34.8</ele></trkpt>
      <trkpt lat="60.185092" lon="24.691412"><ele>34.2</ele></trkpt>
      <trkpt lat="60.185072" lon="24.691562"><ele>33.4</ele></trkpt>
      <trkpt lat="60.185042" lon="24.691607"><ele>33</ele></trkpt>
      <trkpt lat="60.185002" lon="24.691652"><ele>32.6</ele></trkpt>
      <trkpt lat="60.184955" lon="24.691695"><ele>32.2</ele></trkpt>
      <trkpt lat="60.184907" lon="24.691757"><ele>31.8</ele></trkpt>
      <trkpt lat="60.184832" lon="24.691935"><ele>31</ele></trkpt>
      <trkpt lat="60.184787" lon="24.691972"><ele>30.4</ele></trkpt>
      <trkpt lat="60.184745" lon="24.691952"><ele>29.6</ele></trkpt>
      <trkpt lat="60.184697" lon="24.691932"><ele>28.8</ele></trkpt>
      <trkpt lat="60.184662" lon="24.691955"><ele>28.4</ele></trkpt>
      <trkpt lat="60.184622" lon="24.69196"><ele>28</ele></trkpt>
      <trkpt lat="60.184587" lon="24.691952"><ele>27.6</ele></trkpt>
      <trkpt lat="60.184555" lon="24.691977"><ele>27.2</ele></trkpt>
      <trkpt lat="60.184522" lon="24.692042"><ele>26.8</ele></trkpt>
      <trkpt lat="60.184507" lon="24.692132"><ele>26.6</ele></trkpt>
      <trkpt lat="60.184502" lon="24.692222"><ele>26.4</ele></trkpt>
      <trkpt lat="60.184505" lon="24.692317"><ele>26</ele></trkpt>
      <trkpt lat="60.184492" lon="24.692407"><ele>25.8</ele></trkpt>
      <trkpt lat="60.18447" lon="24.692487"><ele>25.6</ele></trkpt>
      <trkpt lat="60.184447" lon="24.692542"><ele>25.6</ele></trkpt>
      <trkpt lat="60.184432" lon="24.692602"><ele>25.4</ele></trkpt>
      <trkpt lat="60.184427" lon="24.692672"><ele>25.4</ele></trkpt>
      <trkpt lat="60.184412" lon="24.692742"><ele>25.2</ele></trkpt>
      <trkpt lat="60.184392" lon="24.692805"><ele>25</ele></trkpt>
      <trkpt lat="60.184372" lon="24.692878"><ele>24.8</ele></trkpt>
      <trkpt lat="60.184357" lon="24.692942"><ele>24.6</ele></trkpt>
      <trkpt lat="60.18436" lon="24.693005"><ele>24.4</ele></trkpt>
      <trkpt lat="60.184372" lon="24.693057"><ele>24.2</ele></trkpt>
      <trkpt lat="60.184415" lon="24.693145"><ele>24</ele></trkpt>
      <trkpt lat="60.18445" lon="24.693257"><ele>23.6</ele></trkpt>
      <trkpt lat="60.184462" lon="24.69334"><ele>23.6</ele></trkpt>
      <trkpt lat="60.18448" lon="24.693422"><ele>23.6</ele></trkpt>
      <trkpt lat="60.184497" lon="24.693507"><ele>23.4</ele></trkpt>
      <trkpt lat="60.184517" lon="24.693582"><ele>23.4</ele></trkpt>
      <trkpt lat="60.184502" lon="24.693655"><ele>23.2</ele></trkpt>
      <trkpt lat="60.184467" lon="24.693702"><ele>23</ele></trkpt>
      <trkpt lat="60.184437" lon="24.693747"><ele>22.6</ele></trkpt>
      <trkpt lat="60.184402" lon="24.693775"><ele>22.4</ele></trkpt>
      <trkpt lat="60.184365" lon="24.693905"><ele>22.2</ele></trkpt>
      <trkpt lat="60.184352" lon="24.69404"><ele>22.2</ele></trkpt>
      <trkpt lat="60.184332" lon="24.69408"><ele>22</ele></trkpt>
      <trkpt lat="60.184312" lon="24.694127"><ele>22</ele></trkpt>
      <trkpt lat="60.18424" lon="24.694205"><ele>21.8</ele></trkpt>
      <trkpt lat="60.184202" lon="24.694225"><ele>21.8</ele></trkpt>
      <trkpt lat="60.184157" lon="24.694262"><ele>21.8</ele></trkpt>
      <trkpt lat="60.18412" lon="24.694297"><ele>21.8</ele></trkpt>
      <trkpt lat="60.184082" lon="24.69433"><ele>21.8</ele></trkpt>
      <trkpt lat="60.18401" lon="24.6944"><ele>21.8</ele></trkpt>
      <trkpt lat="60.18396" lon="24.694492"><ele>21.8</ele></trkpt>
      <trkpt lat="60.183912" lon="24.694635"><ele>21.8</ele></trkpt>
      <trkpt lat="60.183922" lon="24.694752"><ele>22</ele></trkpt>
      <trkpt lat="60.183922" lon="24.694925"><ele>22</ele></trkpt>
      <trkpt lat="60.183915" lon="24.695112"><ele>22.2</ele></trkpt>
      <trkpt lat="60.18386" lon="24.695227"><ele>22.2</ele></trkpt>
      <trkpt lat="60.183812" lon="24.695252"><ele>22.2</ele></trkpt>
      <trkpt lat="60.183762" lon="24.695257"><ele>22</ele></trkpt>
      <trkpt lat="60.183662" lon="24.695262"><ele>22</ele></trkpt>
      <trkpt lat="60.183622" lon="24.695247"><ele>22</ele></trkpt>
      <trkpt lat="60.183577" lon="24.695232"><ele>22</ele></trkpt>
      <trkpt lat="60.183537" lon="24.695202"><ele>21.8</ele></trkpt>
      <trkpt lat="60.183495" lon="24.695187"><ele>21.8</ele></trkpt>
      <trkpt lat="60.183452" lon="24.695187"><ele>21.8</ele></trkpt>
      <trkpt lat="60.18343" lon="24.695225"><ele>21.8</ele></trkpt>
      <trkpt lat="60.183418" lon="24.695327"><ele>21.8</ele></trkpt>
      <trkpt lat="60.183415" lon="24.695387"><ele>21.8</ele></trkpt>
      <trkpt lat="60.183402" lon="24.695432"><ele>21.8</ele></trkpt>
      <trkpt lat="60.183397" lon="24.695502"><ele>21.8</ele></trkpt>
      <trkpt lat="60.183392" lon="24.695597"><ele>22.2</ele></trkpt>
      <trkpt lat="60.183377" lon="24.695685"><ele>22.8</ele></trkpt>
      <trkpt lat="60.183367" lon="24.69573"><ele>23</ele></trkpt>
      <trkpt lat="60.183355" lon="24.695782"><ele>23.2</ele></trkpt>
      <trkpt lat="60.183317" lon="24.695905"><ele>23.8</ele></trkpt>
      <trkpt lat="60.18325" lon="24.696047"><ele>24.2</ele></trkpt>
      <trkpt lat="60.18316" lon="24.696197"><ele>24.2</ele></trkpt>
      <trkpt lat="60.18311" lon="24.69637"><ele>23.6</ele></trkpt>
      <trkpt lat="60.183107" lon="24.696457"><ele>23</ele></trkpt>
      <trkpt lat="60.183123" lon="24.696515"><ele>22.4</ele></trkpt>
      <trkpt lat="60.183147" lon="24.696547"><ele>22</ele></trkpt>
      <trkpt lat="60.18317" lon="24.696565"><ele>21.4</ele></trkpt>
      <trkpt lat="60.183193" lon="24.696607"><ele>21</ele></trkpt>
      <trkpt lat="60.183197" lon="24.696687"><ele>21</ele></trkpt>
      <trkpt lat="60.183162" lon="24.696742"><ele>21.2</ele></trkpt>
      <trkpt lat="60.183112" lon="24.696787"><ele>21.6</ele></trkpt>
      <trkpt lat="60.183062" lon="24.696797"><ele>21.8</ele></trkpt>
      <trkpt lat="60.183042" lon="24.696802"><ele>22</ele></trkpt>
      <trkpt lat="60.18302" lon="24.696827"><ele>22</ele></trkpt>
      <trkpt lat="60.182962" lon="24.69689"><ele>22.2</ele></trkpt>
      <trkpt lat="60.182937" lon="24.69693"><ele>22.2</ele></trkpt>
      <trkpt lat="60.182922" lon="24.69697"><ele>22.2</ele></trkpt>
      <trkpt lat="60.182905" lon="24.697002"><ele>22.2</ele></trkpt>
      <trkpt lat="60.182882" lon="24.697032"><ele>22.2</ele></trkpt>
      <trkpt lat="60.182852" lon="24.697087"><ele>22.4</ele></trkpt>
      <trkpt lat="60.182842" lon="24.697107"><ele>21.6</ele></trkpt>
      <trkpt lat="60.182832" lon="24.697142"><ele>21.6</ele></trkpt>
      <trkpt lat="60.182813" lon="24.697187"><ele>21.6</ele></trkpt>
      <trkpt lat="60.182777" lon="24.697202"><ele>21.6</ele></trkpt>
      <trkpt lat="60.182752" lon="24.697215"><ele>21.6</ele></trkpt>
      <trkpt lat="60.182732" lon="24.697222"><ele>21.6</ele></trkpt>
      <trkpt lat="60.182712" lon="24.697225"><ele>21.6</ele></trkpt>
      <trkpt lat="60.182672" lon="24.697202"><ele>21.4</ele></trkpt>
      <trkpt lat="60.182647" lon="24.697167"><ele>21.4</ele></trkpt>
      <trkpt lat="60.182622" lon="24.697142"><ele>21.4</ele></trkpt>
      <trkpt lat="60.182597" lon="24.697117"><ele>21.4</ele></trkpt>
      <trkpt lat="60.182572" lon="24.697095"><ele>21.4</ele></trkpt>
      <trkpt lat="60.182547" lon="24.697052"><ele>21.6</ele></trkpt>
      <trkpt lat="60.182522" lon="24.697002"><ele>21.6</ele></trkpt>
      <trkpt lat="60.182502" lon="24.696945"><ele>21.6</ele></trkpt>
      <trkpt lat="60.182492" lon="24.69689"><ele>21.8</ele></trkpt>
      <trkpt lat="60.182477" lon="24.69684"><ele>21.8</ele></trkpt>
      <trkpt lat="60.182455" lon="24.696795"><ele>21.8</ele></trkpt>
      <trkpt lat="60.18243" lon="24.696757"><ele>21.8</ele></trkpt>
      <trkpt lat="60.182402" lon="24.69674"><ele>21.8</ele></trkpt>
      <trkpt lat="60.182377" lon="24.696732"><ele>21.6</ele></trkpt>
      <trkpt lat="60.182347" lon="24.696707"><ele>21.6</ele></trkpt>
      <trkpt lat="60.182317" lon="24.696657"><ele>21.6</ele></trkpt>
      <trkpt lat="60.182295" lon="24.696612"><ele>21.4</ele></trkpt>
      <trkpt lat="60.182267" lon="24.696592"><ele>21.4</ele></trkpt>
      <trkpt lat="60.182237" lon="24.696587"><ele>21.2</ele></trkpt>
      <trkpt lat="60.182207" lon="24.696605"><ele>21.2</ele></trkpt>
      <trkpt lat="60.182142" lon="24.696655"><ele>21</ele></trkpt>
      <trkpt lat="60.182077" lon="24.696702"><ele>20.8</ele></trkpt>
      <trkpt lat="60.182042" lon="24.696715"><ele>20.8</ele></trkpt>
      <trkpt lat="60.182005" lon="24.696735"><ele>20.8</ele></trkpt>
      <trkpt lat="60.181975" lon="24.696762"><ele>20.8</ele></trkpt>
      <trkpt lat="60.181912" lon="24.696847"><ele>20.8</ele></trkpt>
      <trkpt lat="60.181862" lon="24.696957"><ele>20.6</ele></trkpt>
      <trkpt lat="60.18182" lon="24.697072"><ele>20.6</ele></trkpt>
      <trkpt lat="60.181775" lon="24.697182"><ele>20.6</ele></trkpt>
      <trkpt lat="60.181742" lon="24.697292"><ele>21</ele></trkpt>
      <trkpt lat="60.181717" lon="24.697427"><ele>21.4</ele></trkpt>
      <trkpt lat="60.181702" lon="24.697575"><ele>21.6</ele></trkpt>
      <trkpt lat="60.181692" lon="24.697645"><ele>21.8</ele></trkpt>
      <trkpt lat="60.181667" lon="24.697692"><ele>21.8</ele></trkpt>
      <trkpt lat="60.181637" lon="24.697722"><ele>22</ele></trkpt>
      <trkpt lat="60.181585" lon="24.697815"><ele>21.8</ele></trkpt>
      <trkpt lat="60.181562" lon="24.69786"><ele>22</ele></trkpt>
      <trkpt lat="60.181502" lon="24.697952"><ele>22.4</ele></trkpt>
      <trkpt lat="60.181475" lon="24.698002"><ele>22.6</ele></trkpt>
      <trkpt lat="60.181448" lon="24.698047"><ele>22.6</ele></trkpt>
      <trkpt lat="60.181425" lon="24.698092"><ele>22.8</ele></trkpt>
      <trkpt lat="60.181375" lon="24.69818"><ele>22.6</ele></trkpt>
      <trkpt lat="60.181342" lon="24.6982"><ele>22.4</ele></trkpt>
      <trkpt lat="60.181312" lon="24.698227"><ele>22.2</ele></trkpt>
      <trkpt lat="60.18125" lon="24.698287"><ele>22</ele></trkpt>
      <trkpt lat="60.181232" lon="24.698342"><ele>22</ele></trkpt>
      <trkpt lat="60.1812" lon="24.69844"><ele>21.8</ele></trkpt>
      <trkpt lat="60.181195" lon="24.698497"><ele>21.8</ele></trkpt>
      <trkpt lat="60.181177" lon="24.698567"><ele>21.8</ele></trkpt>
      <trkpt lat="60.181152" lon="24.69862"><ele>22</ele></trkpt>
      <trkpt lat="60.181122" lon="24.69867"><ele>22</ele></trkpt>
      <trkpt lat="60.18109" lon="24.698725"><ele>22.2</ele></trkpt>
      <trkpt lat="60.181062" lon="24.698792"><ele>22.2</ele></trkpt>
      <trkpt lat="60.18103" lon="24.698857"><ele>22.4</ele></trkpt>
      <trkpt lat="60.180997" lon="24.6989"><ele>22.4</ele></trkpt>
      <trkpt lat="60.180957" lon="24.698912"><ele>22.6</ele></trkpt>
      <trkpt lat="60.18092" lon="24.698907"><ele>22.6</ele></trkpt>
      <trkpt lat="60.18088" lon="24.698912"><ele>22.8</ele></trkpt>
      <trkpt lat="60.180835" lon="24.698897"><ele>22.8</ele></trkpt>
      <trkpt lat="60.180792" lon="24.698877"><ele>22.8</ele></trkpt>
      <trkpt lat="60.180752" lon="24.698847"><ele>22.8</ele></trkpt>
      <trkpt lat="60.180712" lon="24.698845"><ele>22.8</ele></trkpt>
      <trkpt lat="60.180672" lon="24.698875"><ele>22.6</ele></trkpt>
      <trkpt lat="60.180637" lon="24.698927"><ele>22.8</ele></trkpt>
      <trkpt lat="60.180602" lon="24.698997"><ele>22.6</ele></trkpt>
      <trkpt lat="60.180562" lon="24.699055"><ele>22.6</ele></trkpt>
      <trkpt lat="60.18051" lon="24.69906"><ele>22.4</ele></trkpt>
      <trkpt lat="60.180457" lon="24.699055"><ele>22</ele></trkpt>
      <trkpt lat="60.180402" lon="24.699047"><ele>21.6</ele></trkpt>
      <trkpt lat="60.180352" lon="24.699035"><ele>21.4</ele></trkpt>
      <trkpt lat="60.180297" lon="24.699012"><ele>21</ele></trkpt>
      <trkpt lat="60.180252" lon="24.698967"><ele>20.8</ele></trkpt>
      <trkpt lat="60.18021" lon="24.69891"><ele>20.6</ele></trkpt>
      <trkpt lat="60.180168" lon="24.698865"><ele>20.4</ele></trkpt>
      <trkpt lat="60.180132" lon="24.698825"><ele>20.2</ele></trkpt>
      <trkpt lat="60.180102" lon="24.69877"><ele>20</ele></trkpt>
      <trkpt lat="60.180077" lon="24.698732"><ele>20</ele></trkpt>
      <trkpt lat="60.180055" lon="24.698697"><ele>19.8</ele></trkpt>
      <trkpt lat="60.180022" lon="24.698682"><ele>19.8</ele></trkpt>
      <trkpt lat="60.179992" lon="24.698687"><ele>19.8</ele></trkpt>
      <trkpt lat="60.179957" lon="24.698687"><ele>20</ele></trkpt>
      <trkpt lat="60.179922" lon="24.698667"><ele>20</ele></trkpt>
      <trkpt lat="60.179892" lon="24.698622"><ele>20</ele></trkpt>
      <trkpt lat="60.179865" lon="24.698592"><ele>20.2</ele></trkpt>
      <trkpt lat="60.179837" lon="24.69858"><ele>20.2</ele></trkpt>
      <trkpt lat="60.179807" lon="24.698562"><ele>20.4</ele></trkpt>
      <trkpt lat="60.179782" lon="24.698542"><ele>20.4</ele></trkpt>
      <trkpt lat="60.17976" lon="24.69851"><ele>20.2</ele></trkpt>
      <trkpt lat="60.179742" lon="24.698487"><ele>20.4</ele></trkpt>
      <trkpt lat="60.179722" lon="24.698482"><ele>20.4</ele></trkpt>
      <trkpt lat="60.179697" lon="24.698477"><ele>20.2</ele></trkpt>
      <trkpt lat="60.179665" lon="24.698462"><ele>20.4</ele></trkpt>
      <trkpt lat="60.17964" lon="24.69845"><ele>20.4</ele></trkpt>
      <trkpt lat="60.179612" lon="24.69845"><ele>20.4</ele></trkpt>
      <trkpt lat="60.179587" lon="24.698437"><ele>20.4</ele></trkpt>
      <trkpt lat="60.179572" lon="24.698408"><ele>20.4</ele></trkpt>
      <trkpt lat="60.179562" lon="24.69837"><ele>20.4</ele></trkpt>
      <trkpt lat="60.179537" lon="24.698337"><ele>20</ele></trkpt>
      <trkpt lat="60.179507" lon="24.698307"><ele>20</ele></trkpt>
      <trkpt lat="60.179485" lon="24.698282"><ele>20</ele></trkpt>
      <trkpt lat="60.179462" lon="24.698262"><ele>20</ele></trkpt>
      <trkpt lat="60.179437" lon="24.698232"><ele>20</ele></trkpt>
      <trkpt lat="60.179417" lon="24.69818"><ele>20</ele></trkpt>
      <trkpt lat="60.179392" lon="24.698132"><ele>20</ele></trkpt>
      <trkpt lat="60.179375" lon="24.698115"><ele>20.2</ele></trkpt>
      <trkpt lat="60.179355" lon="24.698092"><ele>20.2</ele></trkpt>
      <trkpt lat="60.179335" lon="24.698067"><ele>20.4</ele></trkpt>
      <trkpt lat="60.179315" lon="24.69804"><ele>20.6</ele></trkpt>
      <trkpt lat="60.179297" lon="24.69801"><ele>20.6</ele></trkpt>
      <trkpt lat="60.179282" lon="24.69797"><ele>20.8</ele></trkpt>
      <trkpt lat="60.179272" lon="24.697927"><ele>20.8</ele></trkpt>
      <trkpt lat="60.179242" lon="24.697882"><ele>21</ele></trkpt>
      <trkpt lat="60.179222" lon="24.697862"><ele>21</ele></trkpt>
      <trkpt lat="60.179197" lon="24.697847"><ele>21</ele></trkpt>
      <trkpt lat="60.179167" lon="24.697837"><ele>21.2</ele></trkpt>
      <trkpt lat="60.179142" lon="24.69782"><ele>21.2</ele></trkpt>
      <trkpt lat="60.179115" lon="24.697792"><ele>21.2</ele></trkpt>
      <trkpt lat="60.17909" lon="24.697782"><ele>21.2</ele></trkpt>
      <trkpt lat="60.179062" lon="24.697762"><ele>21</ele></trkpt>
      <trkpt lat="60.179035" lon="24.69774"><ele>21</ele></trkpt>
      <trkpt lat="60.179012" lon="24.697707"><ele>20.8</ele></trkpt>
      <trkpt lat="60.178987" lon="24.697672"><ele>20.6</ele></trkpt>
      <trkpt lat="60.178955" lon="24.697635"><ele>20.4</ele></trkpt>
      <trkpt lat="60.178935" lon="24.697617"><ele>20.4</ele></trkpt>
      <trkpt lat="60.178915" lon="24.697582"><ele>20.4</ele></trkpt>
      <trkpt lat="60.178902" lon="24.69755"><ele>20.4</ele></trkpt>
      <trkpt lat="60.178882" lon="24.697517"><ele>20.4</ele></trkpt>
      <trkpt lat="60.17886" lon="24.697482"><ele>20.2</ele></trkpt>
      <trkpt lat="60.178837" lon="24.697437"><ele>20.4</ele></trkpt>
      <trkpt lat="60.178812" lon="24.697385"><ele>20.4</ele></trkpt>
      <trkpt lat="60.178792" lon="24.697327"><ele>20.4</ele></trkpt>
      <trkpt lat="60.178767" lon="24.697292"><ele>20.4</ele></trkpt>
      <trkpt lat="60.178722" lon="24.697202"><ele>20.6</ele></trkpt>
      <trkpt lat="60.178705" lon="24.697157"><ele>20.6</ele></trkpt>
      <trkpt lat="60.178687" lon="24.697132"><ele>20.6</ele></trkpt>
      <trkpt lat="60.178655" lon="24.697117"><ele>20.6</ele></trkpt>
      <trkpt lat="60.178622" lon="24.697092"><ele>20.8</ele></trkpt>
      <trkpt lat="60.178557" lon="24.697032"><ele>20.8</ele></trkpt>
      <trkpt lat="60.17853" lon="24.696982"><ele>20.8</ele></trkpt>
      <trkpt lat="60.178517" lon="24.69694"><ele>20.8</ele></trkpt>
      <trkpt lat="60.1785" lon="24.696922"><ele>20.6</ele></trkpt>
      <trkpt lat="60.17848" lon="24.696952"><ele>20.4</ele></trkpt>
      <trkpt lat="60.178457" lon="24.696977"><ele>20.4</ele></trkpt>
      <trkpt lat="60.178432" lon="24.696972"><ele>20.4</ele></trkpt>
      <trkpt lat="60.178407" lon="24.696937"><ele>20.2</ele></trkpt>
      <trkpt lat="60.178397" lon="24.6969"><ele>20</ele></trkpt>
      <trkpt lat="60.178382" lon="24.696872"><ele>19.8</ele></trkpt>
      <trkpt lat="60.178362" lon="24.696837"><ele>19.8</ele></trkpt>
      <trkpt lat="60.178337" lon="24.696807"><ele>19.6</ele></trkpt>
      <trkpt lat="60.178312" lon="24.696782"><ele>19.4</ele></trkpt>
      <trkpt lat="60.178277" lon="24.696767"><ele>19.4</ele></trkpt>
      <trkpt lat="60.178237" lon="24.696762"><ele>19.2</ele></trkpt>
      <trkpt lat="60.17819" lon="24.696767"><ele>19</ele></trkpt>
      <trkpt lat="60.17813" lon="24.6968"><ele>18.6</ele></trkpt>
      <trkpt lat="60.178077" lon="24.69686"><ele>18.2</ele></trkpt>
      <trkpt lat="60.17804" lon="24.696932"><ele>17.6</ele></trkpt>
      <trkpt lat="60.17801" lon="24.69699"><ele>16.8</ele></trkpt>
      <trkpt lat="60.177992" lon="24.697032"><ele>16</ele></trkpt>
      <trkpt lat="60.17798" lon="24.697067"><ele>15.4</ele></trkpt>
      <trkpt lat="60.177977" lon="24.697132"><ele>14.6</ele></trkpt>
    </trkseg>
  </trk>
</gpx>
